"codImport";"idEntImport";"nombre";"nombre corto";"descripción";"fechaConstitucion";"nombreDireccion";"direccion";"detalleDireccion";"direccionBreve";"cp";"ciudad";"lat";"lon";"email";"Telefono";"Pagina web";"Facebook";"Twitter";"tipo";"clasificacion";"created";"tipoCTS";"tipo_space";"tipo_topic";"tipo_agent";"direccionCompleta"
"CIVICS";16;"Agrupación Deportiva Simancas";;"Escuela deportiva del barrio de Simancas, en San Blas, nacida en 1990. Centenares de chicas y de chicos han aprendido a jugar a fútbol en esta escuela de barrio. ";;;"C/ Mieres, 15";;;;"Madrid";"40.428819";"-3.629663";"jesusdejose@adaesimancas.com";;;;"@SimancasADAE";;;"2015-06-16 20:05:45+00";"colectivo";"Otros";"Otra";"Administración Pública";"Campamento, España"
"CIVICS";17;"Centro Social La Traba ";;"El antiguo cine Candilejas es el nuevo ""hogar"" del Centro Social La Traba, que plantea proyectar películas, organizar representaciones teatrales y construir una pista de skate, además de las iniciativas que planteen el vencindario y los colectivos del entorno.   ";;"Centro Social La Traba ";"Plaza Luca de Tena";;;;"Madrid";"40.401456";"-3.693406";;;"http://csolatraba.nuevaradio.org/";"https://www.facebook.com/csoa.latraba";"@csolatraba ";"Centro Social";;"2015-06-16 20:05:45+00";"colectivo";"Medios de Comunicación Vecinales";"Política y Gobernanza";"Asambleas Populares, Mareas, Plataformas y Grupos de Trabajo";"Avda. de Daroca, 90, 28017 Madrid, España"
"CIVICS";18;"Cabaret Flotante ";;"Cabaret Jam Session. En la que todo tipo de disciplina artística es bienvenida! Nace en 2010 y tiene una gran afluencia de público. Abierto a la participación de músicos con una plataforma de partituras libres para la inclusión de todos los que deseen participar. Es todos los años en junio.";;;"Lago de la Casa de Campo, Casa de Campo";;;;"Madrid";"40.418924";"-3.732704";"piatedesco@yahoo.es";;;"https://www.facebook.com/CabaretFlotante";"@CabaretFlotante";"Asociación Cultural";;"2015-06-16 20:05:45+00";"organizacion";"Trabajo Colaborativo";"Ecología Urbana y Consumo";"Empresa Social";
"CIVICS";364;"Liga Cooperativa de Fútbol Sala";;"Liga cooperativa y autogestionada que trabaja por generar una alternativa de ocio sano y gratuito en los barrios Hortaleza y Chamartín y protestar por los precios abusivos y por la subida progresiva de precios para participar en competiciones deportivas del Ayuntamiento de Madrid.";;;"C/ Rosa Jardón, 12";;;;"Madrid";"40.465302";"-3.668697";"ligafutbolsalacooperativa@gmail.com";;"http://ligafutbolsalacooperativa.org/";"https://www.facebook.com/ligafutbolsalacooperativa";"@futbolsalaliga";"Espacio Vecinal";"Cultura";"2015-06-16 20:05:45+00";"colectivo";"Otros";"Deporte";"Organizaciones y Asociaciones de Vecinos";"Avda. Carabanchel Alto, 64, 28054 Madrid, España"
"CIVICS";365;"Escuela Popular La Prospe";;"La Escuela Popular de Prosperidad es un proyecto pedagógico y social que surge por iniciativa popular en 1973 en el barrio madrileño de Prosperidad. Un proyecto de educación iniciado, por lo tanto, por gente del barrio, con gente del barrio y para la gente de ese y cualquier otro barrio.";;"Escuela Popular La Prospe";"C/ Luis Cabrera, 19";;;;"Madrid";"40.442048";"-3.675933";"prospe@nodo50.org";;"http://prosperesiste.nodo50.org/ /";;;"Empresa Social";"Educación";"2015-06-16 20:05:45+00";"colectivo";"Centro Social";"Otra";"Organizaciones y Asociaciones de Vecinos";"Avda. de Daroca, 49, 28017 Madrid, España"
"CIVICS";367;"La Casa del Barrio";;"Colectivo autogestionado e independiente basado en la horizontalidad y en la asamblea como método organizativo que pretende crear un espacio abierto para construir cultura colectiva en el barrio de Carabanchel. La Asociación Cultural Casa del Barrio es el motor de la Casa del Barrio organizando los espacios, las salas y generando actividades para todas las personas del barrio.";;"La Casa del Barrio";"Avda. de Carabanchel Alto, 64";;;;"Madrid";"40.369876";"-3.753279";"info@casadelbarriocarabanchel.es";;"http://casadelbarriocarabanchel.es/";"https://www.facebook.com/casadelbarrio.carabanchel";"@CasaDelBarrio";;"Derechos Humanos";"2015-06-16 20:05:45+00";"colectivo";"Otros";"Apoyo Mutuo y Cuidados";"Conquistas Ciudadanas del Pasado";
"CIVICS";369;"Grupo de postparto y crianza Si los hombres hablasen";;"Grupo de hombres que se reúne dos veces al mes en un local de Madrid para intentar poner en común herramientas, fórmulas o mecanismos útiles para el embarazo de sus mujeres y la crianza de sus hijos. ";;;"C/ Trafalgar, 12";;;;"Madrid";"40.43172";"-3.700367";;;;"https://www.facebook.com/groups/siloshombreshablasen";"@siloshombres";"Asociaciones de Vecinos";"Urbanismo";"2015-06-16 20:05:45+00";"organizacion";"Encuentro Diálogo y Corresponsabilidad";"Cultura Libre";"Iniciativa Ciudadana";
"CIVICS";370;"Lucero Activo";;"Grupo de trabajadores desmpleados del barrio de Lucero que tiene como fin principal conseguir un empleo por cuenta propia o ajena a partir de presupuestos de apoyo mutuo. Dan una importancia central a la mejora de la formación que resuelven compartiendo sus saberes.  ";;;"C/ Alhambra, 21";;;;"Madrid";"40.403006";"-3.744766";"lucero.activo@gmail.com";;"http://avvlucero.org/";"https://www.facebook.com/avv.lucero";;"Apoyo Mutuo";"Social";"2015-06-16 20:05:45+00";"colectivo";"Otros";"Política y Gobernanza";"Asambleas Populares, Mareas, Plataformas y Grupos de Trabajo";
"CIVICS";371;"Plataforma Salvemos el Frontón Beti Jai";;"Plataforma ciudadana que trabaja por lograr la rehabilitación y conservación del frontón Beti Jai, una instalación deportiva en la que se practicaba la pelota vasca en el siglo XIX. El espacio, abandonado desde hace años, es una suma de estilos arquitectónicos: el clecticismo de la fachada principal, el neomudéjar presente en algunas partes del interior y la arquitectura del hierro característica del siglo XIX.";;;"C/ Marqués de Riscal, 7";;;;"Madrid";"40.430667";"-3.691251";"betijaimadrid@gmail.com";;"http://frontonbetijaimadrid.org/";"https://www.facebook.com/frontonbetijai";"@betijaimadrid";"Espacio Vecinal";;"2015-06-16 20:05:45+00";"organizacion";"Encuentro Diálogo y Corresponsabilidad";"Urbanismo y Patrimonio";"Organizaciones y Asociaciones de Vecinos";"Avda. de los Fueros, 36, 28041 Madrid, España"
"CIVICS";373;"La Nave - Granja Urbana";;"Espacio de creación multidisciplinar donde poder explorar tus posibilidades creativas.";;;"Avda. de Daroca, 49";;;;"Madrid";"40.429346";"-3.652018";;;;"https://www.facebook.com/Lanave.talleres";"@_lanave";"Asociaciones de Vecinos";"Urbanismo";"2015-06-16 20:05:45+00";"organizacion";"Encuentro Diálogo y Corresponsabilidad";"Apoyo Mutuo y Cuidados";"Asambleas Populares, Mareas, Plataformas y Grupos de Trabajo";
"CIVICS";374;"Albergue San Fermín";;"Albergue juvenil gestionado por una entidad de desarrollo comunitario sin ánimo de lucro . Formación, Empleo, Género, Educación, Intercultularidad, acceso a las TICs, trabajo comunitario y de participación se convierten en ejes fundamentales de su trabajo.";;"Albergue San Fermín";"Avda. de los Fueros, 36";;;;"Madrid";"40.370342";"-3.688804";"albergue@san-fermin.org";;"http://www.san-fermin.org/index.php/albergue";;;"Asociaciones de Vecinos";"Urbanismo";"2015-06-16 20:05:45+00";"organizacion";"Encuentro Diálogo y Corresponsabilidad";"Derechos e Igualdad";"Asambleas Populares, Mareas, Plataformas y Grupos de Trabajo";
"CIVICS";375;"La Piluka";;"Espacio autogestionado para compartir recursos, saberes y acción política. En el centro se localizan la Plataforma Barrio del Pilar en lucha, la AV La Flor, la Oficina de Vivienda, Amnistía Internacional de Fuencarral- El Pardo...";;"La Piluka";"Plaza de Corcubión, 16";;;;"Madrid";"40.476745";"-3.707354";;917304527;"http://www.lapiluka.org";;;;"Urbanismo";"2015-06-16 20:05:45+00";"organizacion";"Otros";"Ecología Urbana y Consumo";"Organizaciones y Asociaciones de Vecinos";"Universidad Politécnica de Madrid, Avda. Juan de Herrera, 4, 28040 Madrid, España"
"CIVICS";377;"Escuela Popular de Oporto";;"La escuela popular es una organización de base para la promover la educación de personas adultas, el aprendizaje colectivo y la transformación social. Se basa en el voluntariado y la gratuidad.";;"Escuela Popular de Oporto";"C/ Busaco, 2";;;;"Madrid";"40.382072";"-3.725253";"admin@escuelapopulardeoporto.org";;"http://www.escuelapopulardeoporto.org/";;;"Escuela";"Arte";"2015-06-16 20:05:45+00";"organizacion";"Encuentro Diálogo y Corresponsabilidad";"Deporte";"Iniciativa Ciudadana";
"CIVICS";378;"Madstock";;"Asociación de estudiantes de arquitectura cuyo objetivo principal es experimentar en la construcción a escala 1:1, re-interpretando el significado y promoviendo el uso de materiales existentes y reciclados. Abierto a todos aquellos estudiantes, colectivos, trabajadores, parados, extraterrestres… a hacer una reflexión conjunta, debate o crítica y, por supuesto, a unirse a la acción colectiva.";;;"Avda. Juan de Herrera, 4";;;;"Madrid";"40.439062";"-3.731653";"madstock@madstock.es";;"https://madstck.wordpress.com/";;"@_madstock";"Asociaciones de Vecinos";"Urbanismo";"2015-06-16 20:05:45+00";"organizacion";"Encuentro Diálogo y Corresponsabilidad";"Derechos e Igualdad";"Iniciativa Ciudadana";
"CIVICS";380;"Banco de Intercambio de Semillas";;"El Banco de Intercambio de Semillas es una iniciativa encaminada hacia la descentralización del control de la semilla y un modo de poner en cuestión los modelos de gestión que generamos o de los que formamos parte en la cultura y en la vida.";;;"Paseo de la Chopera, 14";;;;"Madrid";"40.392429";"-3.697202";"info@ecosecha.es";;"http://ecosecha.blogspot.com.es/2010/10/recordad-banco-de-intercambio-de.html";;;"Asociaciones de Vecinos";"Urbanismo";"2015-06-16 20:05:45+00";"organizacion";"Centro Social";"Mediación y Facilitación";"Organizaciones y Asociaciones de Vecinos";
"CIVICS";381;"El Campo de Cebada ";;"Somos vecinos y vecinas del Distrito Centro agrupados, para fomentar el uso temporal del solar del derribado polideportivo de La Latina, durante el tiempo en el que las obras previstas para su nuevo uso urbanistíco no se lleven a cabo; se prevee que pasen años antes de que esto ocurra y no queremos un espacio vacío y abandonado en el centro de Madrid. Creemos en el disfrute del espacio público, en donde el dialogo y las relaciones sociales entre vecin@s apenas se dan. La intención es que el solar de cabida a todo tipo de propuestas/actividades/proyectos de tipo cultural, social, artistíco, deportivo… para el uso y disfrute de las personas del barrio y de Madrid.";;"El Campo de Cebada ";"Plaza de la Cebada";;;;"Madrid";"40.411276";"-3.708763";"infocampodecebada@gmail.com";;"http://elcampodecebada.org/";"https://www.facebook.com/El-campo-de-Cebada-180735625274126/";"@campodecebada";"Movilidad";;"2015-06-16 20:05:45+00";"colectivo";"Encuentro Diálogo y Corresponsabilidad";"Mediación y Facilitación";"Organizaciones y Asociaciones de Vecinos";
"CIVICS";382;"Patio Maravillas";;"Espacio polivalente autogestionado de libre acceso que ha transitado por varios espacios, siempre en el barrio de Malasaña. El colectivo reclama la cesión de un espacio público. En El patio Maravillas puedes encontrar un taller de bicicletas, clases, talleres, exposiciones, proyecciones cinematográficas, conciertos... Es, además, un centro de reuniones de asociaciones, colectivos y plataformas sociales.    ";;"Patio Maravillas";"C/ Divino Pastor, 9";;;;"Madrid";"40.42737";"-3.702722";"coordinacionpatio@gmail.com";;"http://patiomaravillas.net/";"https://www.facebook.com/patiomaravillas.csa";"@patiomaravillas";"Apoyo Mutuo";"Derechos Humanos";"2015-06-16 20:05:45+00";"colectivo";"Encuentro Diálogo y Corresponsabilidad";"Mediación y Facilitación";"Organizaciones y Asociaciones de Vecinos";"C/ de las Cuevas de Almanzora, 46, 28033 Madrid, España"
"CIVICS";383;"Esta es Una Plaza";;"Un grupo de vecinas y vecinos recuperó esta parcela pública abandonada y la convirtió en un jardín comunitario, en un espacio de encuentro y convivencia abierto al desarrollo de actividades que fomentan la ecología, la reutilización y el decrecimiento.";;"Esta es Una Plaza";"C/ Doctor Fourquet, 24";;;;"Madrid";"40.407246";"-3.698687";"estaesunaplaza@gmail.com";;"http://estaesunaplaza.blogspot.com.es/";"https://www.facebook.com/estaesunaplaza";"@estaesunaplaza";"Asociaciones de Vecinos";"Urbanismo";"2015-06-16 20:05:45+00";"organizacion";"Otros";"Mediación y Facilitación";"Organizaciones y Asociaciones de Vecinos";
"CIVICS";385;"La Tabacalera";;"Centro social autogestionado que ocupa 9.200 m2 de los 30.000 de la antigua Fábrica de Tabacos de Embajadores, catalogado como Bien de Interés Cultural (BIC) y está adscrito al Ministerio de Cultura. En el centro se muestran iniciativas bajo criterios de cultura libre y gratuita, cooperación, horizontalidad, transparencia, uso solidario y responsable de los recursos: teatro, música, danza, pintura, conferencias, reuniones, audiovisuales, talleres, eventos, intervenciones en el barrio, un huerto... ¡y mucho más!";;"La Tabacalera";"C/ Embajadores, 51";;;;"Madrid";"40.38833";"-3.691135";"comunicacion.tbc@gmail.com";;"http://latabacalera.net/";"https://www.facebook.com/CSA-La-Tabacalera-de-Lavapi%C3%A9s-131688400207517/";"@latabacalera";"Apoyo Mutuo";"Derechos Humanos";"2015-06-16 20:05:45+00";"organizacion";"Encuentro Diálogo y Corresponsabilidad";"Derechos e Igualdad";"Organizaciones y Asociaciones de Vecinos";"C/ Abárzuza, 28033 Madrid, España"
"CIVICS";386;"Kasa Pública de Mujeres La Eskalera Karakola";;"Centro social que nace en 1996 bajo los principios de autonomía, feminismo y autogestión. Se financia con cuotas de socias y donaciones individuales. Su actividad está principalmente destinada a promover la participación ciudadana de las mujeres y a abordar temas como la precariedad vital y laboral, el derecho a la ciudadanía de las personas migrantes o los derechos LGTBQ. ";;"Kasa Pública de Mujeres La Eskalera Karakola";"C/ Embajadores, 52";;;;"Madrid";"40.408063";"-3.704563";"zuma1917@gmail.com";;"http://www.eskalerakarakola.org/";"https://es-la.facebook.com/laeskalerakarakola";"@laEkka";"Asamblea";;"2015-06-16 20:05:45+00";"colectivo";"Otros";"Apoyo Mutuo y Cuidados";"Iniciativa Ciudadana";"C/ Acebes, 6, 28021 Madrid, España"
"CIVICS";387;"Mercado de San Fernando";;"San Fernando es mucho más que un mercado, es ""un lugar de encuentro para hacer barrio"" en el que se puede comprar verdura ecológica, cervezas artesanales, libros al peso..., bailar swing, participar en talleres y disfrutar de conciertos, representaciones teatrales y ¡mucho más! ";;"Mercado de San Fernando";"C/ Embajadores, 41";;;;"Madrid";"40.407392";"-3.703863";"informacion@mercadodesanfernando.es";;"http://www.mercadodesanfernando.es/";"https://www.facebook.com/mercadosanfernando";"@MER_SANFERNANDO";"Empresa Social";"Centro Social";"2015-06-16 20:05:45+00";"organizacion";"Trabajo Colaborativo";"Política y Gobernanza";"Organizaciones y Asociaciones de Vecinos";
"CIVICS";388;"Bicicrítica Madrid";;"Masa crítica de ciclistas que toma cuerpo los últimos jueves de mes a una hora y en un punto: a las 20h en la plaza de Cibeles. Los recorridos, de unos 10-15 kilómetros, son asequibles para todo tipo de ciclistas. El colectivo reivindica espacios y normas de circulación que permitan convertir la bicicleta en un medio de transporte seguro en la gran ciudad.   ";;;"Plaza de Cibeles";;;;"Madrid";"40.41954";"-3.692814";;;"http://madrid.bicicritica.com/";"https://www.facebook.com/BicicriticaMadrid";"@labicicritica";;"Urbanismo";"2015-06-16 20:05:45+00";"colectivo";"Centro Social";"Otra";"Organizaciones y Asociaciones de Vecinos";"Torre Arias, 28027 Madrid, España"
"CIVICS";389;"Traficantes de Sueños";;"Traficantes de Sueños es un proyecto de producción y comunicación política que aspira a aportar contenidos y a animar debates útiles para la acción colectiva transformadora. Desde su nacimiento en 1995, los ""traficantes"" han creado una librería asociativa, una editorial, una distribuidora, un taller de diseño de materiales y Nodos Comunes, un espacio de autoformación y discusión. ";;"Traficantes de Sueños";"C/ Duque de Alba, 13 ";;;;"Madrid";"40.411686";"-3.706267";"libreria/editorial@traficantes.net";;"http://www.traficantes.net/";"https://es-la.facebook.com/traficantes.desuenos";"@traficantes2010";"Apoyo Mutuo";;"2015-06-16 20:05:45+00";"organizacion";"Otros";"Mediación y Facilitación";"Organizaciones y Asociaciones de Vecinos";
"CIVICS";390;"ECOOO";;"Ecooo es empresa de no lucro cuyos beneficios de destinan a generar tejido social y a campañas de divulgación y sensibilización sobre la transición hacia un modelo energético basado en el ahorro, la eficiencia y las energías renovables. Su local de la C/ Escuadra es un centro de coworking y un espacio de desarrollo de eventos formativos e informativos. ";;;"C/ Escuadra, 11";;;;"Madrid";"40.409819";"-3.700036";"contacto@ecooo.es";;"http://www.ecooo.es/";"https://www.facebook.com/ecooo.revolucionsolar";"@Ecooo_";"Asamblea";;"2015-06-16 20:05:45+00";"colectivo";"Encuentro Diálogo y Corresponsabilidad";"Urbanismo y Patrimonio";"Organizaciones y Asociaciones de Vecinos";"C/ de la Alhambra, 21, 28047 Madrid, España"
"CIVICS";392;"Espacio Vecinal Arganzuela ";"EVA";"Asociaciones vecinales, colectivos que dieron vida al Centro Social La Traba y vecinas y vecinos a título individual forman parte de EVA, un espacio que impulsa actividades sociales, educativas y culturales gestionadas de manera colectiva y democrática para promover la participación democrática de los vecinos de Arganzuela y dignificar su entorno. Reclama la cesión de parte del antiguo Mercado de Frutas y Verduras de Legazpi para la autogestión de este espacio muncipal. ";;"Espacio Vecinal Arganzuela ";"Plaza de Legazpi";;;;"Madrid";"40.390801";"-3.695041";"evarganzuela@gmail.com";;"http://evarganzuela.org/eva/";"https://www.facebook.com/evarganzuela";"@evArganzuela";"Urbanismo";"Educación";"2015-06-16 20:05:45+00";"colectivo";"Encuentro Diálogo y Corresponsabilidad";"Urbanismo y Patrimonio";"Organizaciones y Asociaciones de Vecinos";
"CIVICS";393;"Make Space";;"Espacio dedicado a la fabricación digital en el que se ofrecen las últimas herramientas para la creación de prototipos y el desarrollo de productos y proyectos creativos y tecnológicos. La iniciativa, gestionada por una asociación sin ánimo de lucro e impulsada por los miembros de una comunidad de desarrolladores de tecnología e innovación, practica la producción colaborativa, el intercambio de saberes y la creatividad. ";;;"C/ Pedro Unanúe, 16";;;;"Madrid";"40.403532";"-3.694575";"info@makespacemadrid.org";;"http://makespacemadrid.org/";"https://www.facebook.com/Makespace-Madrid-477334925648477";"@MakeSpaceMadrid";"Espacio Vecinal";"Política";"2015-06-16 20:05:45+00";"colectivo";"Encuentro Diálogo y Corresponsabilidad";"Mediación y Facilitación";"Administración Pública";"C/ del Ánade, 10, 28019 Madrid, Spain"
"CIVICS";394;"Centro Social Seco";;"El centro social que nació en 1991 con la okupación del colegio Juventud autogestiona, tras años de lucha por su realojo, una parte del centro cultural muncipal Luis Peidró. En este espacio, en el que conviven la AV Los Pinos de Retiro Sur, PAH Madrid, grupos de consumo ecológico, un club de lectura de novela negra, un grupo de tricontantes, la asamblea del 15M Retiro, el huerto urbano de Adelfas, un taller de bicis..., puedes participar en decenas de actividades culturales, reivindicativas y formativas.  ";;"Centro Social Seco";"C/ Luis Peidró, 2";;;;"Madrid";"40.396051";"-3.67308";"centrosocialseco@gmail.com";;"http://www.cs-seco.org/";"https://www.facebook.com/Centro-Social-Seco-455562874523397/";"@cs_seco";"Espacio Vecinal";"Centro Social";"2015-06-16 20:05:45+00";"colectivo";"Encuentro Diálogo y Corresponsabilidad";"Mediación y Facilitación";"Organizaciones y Asociaciones de Vecinos";"C/ Anastasio Herrero, 10, 28020 Madrid, España"
"CIVICS";395;"PAH Madrid";;"Afectados por la estafa hipotecaria y personas en riesgo de desahucio se coordinan en este espacio de lucha y de ayuda mutua para trabajar, de forma colectiva, en defensa del derecho a una vivienda digna, un derecho humano fundamental sistemáticamente vulnerado.   ";;"Centro Social Seco";"C/ Luis Peidró, 2";;;;"Madrid";"40.396051";"-3.67308";"informacion@afectadosporlahipotecamadrid.net";;"http://www.afectadosporlahipotecamadrid.net/";"https://www.facebook.com/Plataforma-Afectados-Hipoteca-PAH-MADRID-125266304223405/";"@Pah_Madrid";"Asociaciones de Vecinos";"Urbanismo";"2015-06-16 20:05:45+00";"organizacion";"Encuentro Diálogo y Corresponsabilidad";"Urbanismo y Patrimonio";"Iniciativa Ciudadana";
"CIVICS";396;"Mobb28";;"Movimiento de “ballers” que practica el streetball, una modalidad del baloncesto que se juega en canchas situadas en parques y Calles directamente relacionado con la cultura musical, la integración y la cultura audiovisual creando lazos de solidaridad entre colectivos y favoreciendo la unión, la cohesión social, el respeto y el cuidado del entorno, empezando por las canchas. ";;;"C/ Luis Mitjans, 56";;;;"Madrid";"40.403479";"-3.669093";"ligabasketcooperativa@gmail.com";;"http://www.bball4real.com/";"https://www.facebook.com/mobb28";"@bball4real1";"Asociaciones de Vecinos";"Urbanismo";"2015-06-16 20:05:45+00";"organizacion";"Centro Social";"Apoyo Mutuo y Cuidados";"Administración Pública";
"CIVICS";399;"SecoT";;"Asociación sin ánimo de lucro formada por profesionales cualificados jubilados, prejubilados o en activo que, con espíritu altruista, desean ofrecer su experiencia y conocimientos en gestión empresarial a quienes lo necesitan. Asesoran de forma confidencial ofreciendo su diagnóstico y proponiendo acciones para el desarrollo empresarial, dando respuesta a las preguntas qué hacer, cuándo, cómo y dónde. ";;;"C/ General Oráa, 39";;;;"Madrid";"40.436241";"-3.682189";;;"http://www.secot.org/";"https://www.facebook.com/SECOT-310594118758";"@Secot_";"Apoyo Mutuo";"Consumo";"2015-06-16 20:05:45+00";"organizacion";"Trabajo Colaborativo";"Cultura Libre";"Iniciativa Ciudadana";
"CIVICS";401;"Espacio Pradillo";;"Un espacio que desea intervenir en la esfera pública generando obras y conocimiento, en diálogo con los artistas y la sociedad de nuestro tiempo.Teatro Pradillo no se concibe sin la Comunidad Pradillo, núcleo abierto de artistas, teóricos, gestores y técnicos, grupo de pensamiento y acción para un teatro que tiene la vocación de ser plural y permeable, que trabajan en red libre, desarrollando proyectos con diversas estructuras locales, nacionales e internacionales.";;"Espacio Pradillo";"C/ Pradillo, 12";;;;"Madrid";"40.448587";"-3.674796";"info@teatropradillo.com";;"http://teatropradillo.com/";"https://www.facebook.com/espaciopradillo";"@TeatroPradillo";"Asociaciones de Vecinos";"Urbanismo";"2015-06-16 20:05:45+00";"organizacion";"Encuentro Diálogo y Corresponsabilidad";"Cultura Libre";"Organizaciones y Asociaciones de Vecinos";
"CIVICS";402;"Radio Almenara";;"Radio libre y comunitaria del barrio de la Ventilla que desde 1991 da voz a las asociaciones, colectivos e iniciativas que no tienen cabida en los medios de comunicación aunque también desarrollan talleres de participación, programación, actividades culturales...";;;"C/ Magnolias, 35";;;;"Madrid";"40.468642";"-3.692444";"almenara@radioalmenara.net";;"http://www.radioalmenara.net/ ";"https://www.facebook.com/RadioAlmenara ";"@almenararadio";"Asociaciones de Vecinos";"Urbanismo";"2015-06-16 20:05:45+00";"organizacion";"Encuentro Diálogo y Corresponsabilidad";"Política y Gobernanza";"Iniciativa Ciudadana";
"CIVICS";403;"La Enredadera de Tetuán";;"Espacio okupado autogestionado de Tetuán que acoge diferentes actividades propuestas y desarrolladas por el vecindario (yoga, taller de bicis, cuentacuentos...) y colectivos, como el grupo de Stopdesahucios, el Banco de Alimentos de Tetuán... Aquí encontrarás gente diferente haciendo cosas diferentes, dejándose enredar y enredando.";;"La Enredadera de Tetuán";"C/ Anastasio Herrero, 10";;;;"Madrid";"40.456611";"-3.700984";"enredadera@riseup.net";;"http://laenredaderadetetuan.blogspot.com/";"https://es-la.facebook.com/La-Enredadera-de-Tetu%C3%A1n-398049643544229";"@La_Enre_tetuan";"Escuela";;"2015-06-16 20:05:45+00";"organizacion";"Encuentro Diálogo y Corresponsabilidad";"Política y Gobernanza";"Iniciativa Ciudadana";"C/ Busaco, 2, 28025 Madrid, España"
"CIVICS";407;"Colectivo 1984";;"Colectivo de Aravaca y Pozuelo formado por vecin@s de dichos barrios. Realizan multitud de actividades culturales, políticas y de ocio, tales como video-forums, charlas, las fiestas de primavera del Colectivo o las fiestas de la Rosa Luxemburgo.";;;"C/ Rosa Luxemburgo, s/n - local 2";;;;"Madrid";"40.3802074";"-3.6405077";"colectivo1984@yahoo.es";;"http://www.nodo50.org/colectivo1984";"https://www.facebook.com/Colectivo1984";;"Asociaciones de Vecinos";"Urbanismo";"2015-06-16 20:05:45+00";"organizacion";"Encuentro Diálogo y Corresponsabilidad";"Urbanismo y Patrimonio";"Organizaciones y Asociaciones de Vecinos";
"CIVICS";408;"Azhor";;"Cooperativa de servicios promovida e integrada por un grupo de vecinos desempleados de larga duración.";;;"C/ Abarzuza, 31 - Bajo";;;;"Madrid";"40.476181";"-3.649647";"azhorservicios@hotmail.com";674564710;;"https://www.facebook.com/azhormadrid";;"Asociaciones de Vecinos";"Federación";"2015-06-16 20:05:45+00";"organizacion";"Encuentro Diálogo y Corresponsabilidad";"Urbanismo y Patrimonio";"Organizaciones y Asociaciones de Vecinos";
"CIVICS";409;"Plataforma Campamento Sí";;"Plataforma ciudadana que trabaja para defender los terrenos de Campamento de operaciones especulativas. Reclama la construcción de equipamientos públicos y la creación de un corredor verde entre la zona del río Manzanares y el Parque de Guadarrama.  ";;;"Avda. Extremadura";"cuarteles Campamento";;;"Madrid";"40.38769";"-3.788183";"salvemoscampamento@gmail.com";;;"https://www.facebook.com/campamentosi";"@campamento_si";"Asociaciones de Vecinos";"Urbanismo";"2015-06-16 20:05:45+00";"organizacion";"Encuentro Diálogo y Corresponsabilidad";"Mediación y Facilitación";"Iniciativa Ciudadana";
"CIVICS";410;"La Caba de Aluche";;"Con “B” de “Barrio”. Se trata de un centro social impulsado por vecinos y vecinas de Aluche en 2010. Alberga grupos de cooperativas agroecológicas (SaS, BAH, A Mordiskos), un grupo de mamás, papás y peques (PequeCaba), una escuela popular que imparte clases de castellano (Escuela Popular de Aluche), una biblioteca popular (La Candela), sesiones de juegos de mesa (Jugones), un grupo de reflexión sobre antropología y derechos humanos. Un sitio donde encontrarse, relacionarse, comunicarse y hacer, porque en realidad, todo está por hacer. ";;"La Caba de Aluche";"C/ Tembleque, 136";;;;"Madrid";"40.392293";"-3.766497";"info@lacaba.net";;"http://www.lacaba.net/";"https://www.facebook.com/La-CABA-Casa-Autogestionada-del-Barrio-de-Aluche-449084801825529/";"@lacabaluche";"Asociaciones de Vecinos";"Urbanismo";"2015-06-16 20:05:45+00";"organizacion";"Encuentro Diálogo y Corresponsabilidad";"Educación Expandida";"Organizaciones y Asociaciones de Vecinos";
"CIVICS";413;"Entre Patios";;"Grupo de personas heterogéneo con un objetivo común: vivir bajo otro modelo de convivencia en el que se integren sus inquietudes sociales y medioambientales. Entrepatios es una cooperativa de vivienda de cesión de uso y responde a la necesidad de anclar el lugar donde vivimos a los tres pilares de la sostenibilidad: social, económico y medioambiental.";;;"C/ Milagrosa";;;;"Madrid";"40.409918";"-3.73595";;;"http://entrepatios.org/";"https://www.facebook.com/CooperaCtiva";;"Asociaciones de Vecinos";"Urbanismo";"2015-06-16 20:05:45+00";"organizacion";"Encuentro Diálogo y Corresponsabilidad";"Urbanismo y Patrimonio";"Iniciativa Ciudadana";
"CIVICS";414;"Espacio Social Liberado Autogestionado EKO ";"ESLA Eko ";"La liberación del antiguo economato, El Eko, hizo posible este espacio abierto, multidisciplinar y autogestionado de acceso libre. Aquí podrás asistir a charlas informativas, proyecciones cinematográficas, talleres, representaciones teatrales... Han construido de forma colaborativa una biblioteca y una tienda libre y es la nave nodriza de la Oficina de Derechos Sociales que trabaja contra los desahucios y promovió la creación de una despensa solidaria.   ";;"ESLA Eko ";"C/ Ánade, 10";;;;"Madrid";"40.39173";"-3.731064";"eleko@eslaeko.net";;"http://eslaeko.net/";"https://www.facebook.com/amigasDeleko";"@EKO_Carabanchel";"Asociaciones de Vecinos";"Urbanismo";"2015-06-16 20:05:45+00";"organizacion";"Centro Social";"Apoyo Mutuo y Cuidados";"Iniciativa Ciudadana";
"CIVICS";415;"Rolercleta";;"Masa crítica de ciclistas que toma cuerpo todos los primeros jueves de mes a las 19h para reivindicar una ciudad que apueste por la bicicleta como medio de transporte, habilitando carriles bici y promoviendo una normativa que garantice la seguridad vial de los ciclistas.  ";;;"C/ Payaso Fofo, esquina con C/ Arroyo Olivar";;;;"Madrid";"40.391306";"-3.660227";;;;"https://www.facebook.com/Rollerkleta-VK-443991399052071";;"Centro Social";;"2015-06-16 20:05:45+00";"colectivo";"Encuentro Diálogo y Corresponsabilidad";"Urbanismo y Patrimonio";"Organizaciones y Asociaciones de Vecinos";"C/ Casarrubuelos, 5, 28015 Madrid, España"
"CIVICS";416;"Vaciador 34";;"Tiene su base operativa en un espacio industrial, alquilado y autogestionado en el barrio de Carabanchel, donde se da cabida a la programación de propuestas artísticas de todo tipo, y a un uso polivalente del espacio por parte de otros colectivos. Es un proyecto de autoempleo que trata de generar otras formas de producción, relación y combate. Vaciador es un proyecto de creación, producción material e inmaterial. Producción de producción desde las grietas abiertas en la superficie del capital.";;;"C/ Matilde Hernández, 34 - 2º Izq";;;;"Madrid";"40.391337";"-3.733775";"vaciador34@gmail.com";;"http://vaciador34.net/";;;"Asociaciones de Vecinos";"Urbanismo";"2015-06-16 20:05:45+00";"organizacion";"Encuentro Diálogo y Corresponsabilidad";"Apoyo Mutuo y Cuidados";"Iniciativa Ciudadana";
"CIVICS";421;"Centro de Mayores Chino";;"El Club de Jubilados Chinos gestiona este centro de mayores que financian los comerciantes chinos de Usera. En este espacio de libre acceso para cualquier ciudadano puedes practicar taichi, kung-fu, ping pong... Colabora con el resto de entidades del distrito en la organización de fiestas populares, del Año Nuevo Chino, en torneos deportivos... ";;"Centro de Mayores Chino";"C/ Olvido, 62";;;;"Madrid";"40.384558";"-3.702575";;;;;;"Asociaciones de Vecinos";"Urbanismo";"2015-06-16 20:05:45+00";"organizacion";"Encuentro Diálogo y Corresponsabilidad";"Mediación y Facilitación";"Organizaciones y Asociaciones de Vecinos";
"CIVICS";422;"Do it Yourself";;"El Instituto Do it Yourself es una iniciativa del colectivo Todo por la Praxis. Un nuevo espacio de aprendizaje colaborativo en Madrid, bajo la máxima: Aprender haciendo. Para ello planteamos un lugar de trabajo compartido, donde investigar, construir, experimentar, prototipar y jugar.";;;"C/ Manuel Laguna, 19";;;;"Madrid";"40.381362";"-3.665675";"info@institutodoityourself.org";;"http://www.institutodoityourself.org/";;;"Urbanismo";"Cultura";"2015-06-16 20:05:45+00";"colectivo";"Encuentro Diálogo y Corresponsabilidad";"Apoyo Mutuo y Cuidados";"Iniciativa Ciudadana";"C/ Colmenar Viejo, 6, 28031 Madrid, España"
"CIVICS";423;"La Garbancita Ecológica";;"Cooperativa sin ánimo de lucro promovida por los Grupos Autogestionados de Consumo (GAK) para el fomento de una ali­mentación responsable agroeco­lógica, autogestionada, popular y de responsabilidad comparti­da campo-ciudad. Abastece a las decenas de grupos de consumo que funcionan en Madrid. Espacio de venta de productos que garantizan los derechos de agricultores ecológicos para consumidores consumidores responsables.";;;"C/ Puerto del Milagro, 8";;;;"Madrid";"40.385085";"-3.657655";"lacestabasica@lagarbancitaecologica.org";;"http://www.lagarbancitaecologica.org";"https://www.facebook.com/GarbancitaEcologica";;"Asociaciones de Vecinos";"Urbanismo";"2015-06-16 20:05:45+00";"organizacion";"Encuentro Diálogo y Corresponsabilidad";"Urbanismo y Patrimonio";"Organizaciones y Asociaciones de Vecinos";
"CIVICS";427;"Centro Social La Villana";;"La Villana es un centro social autogestionado de Vallekas, del que tiran cuatro caballos de batalla: la PAH Vallekas, el Grupo de Apoyo de la Red “Yo sí Sanidad Universal”, la despensa solidaria, y la Asamblea Popular de Puente de Vallekas. Además de estas cuatro apuestas, también enseñan castellano a adultos, árabe a niños, reparación de ordenadores, entre otras.";;"Centro Social La Villana";"C/ Montseny, 35";;;;"Madrid";"40.40052";"-3.662412";"info@lavillana.org";;"http://www.lavillana.org";"https://www.facebook.com/LaVillanaVK";" @lavillanavk";"Asociaciones de Vecinos";"Urbanismo";"2015-06-16 20:05:45+00";"organizacion";"Encuentro Diálogo y Corresponsabilidad";"Mediación y Facilitación";"Organizaciones y Asociaciones de Vecinos";
"CIVICS";428;"Centro Social Okupado Juvenil La Atalaya";"CSOJ La Atalaya";"Centro social okupado que pretende ser una herramienta útil para cambiar la sociedad desde una perspectiva juvenil, entendiendo que la juventud necesita espacios propios en los que empoderarse, madurar y tomar sus propias decisiones, adecuadas a los problemas específicos que les afectan jóvenes.";;"Centro Social Okupado Juvenil La Atalaya";"C/ Puerto del Milagro, 2";;;;"Madrid";"40.384927";"-3.659219";"csojatalaya@gmail.com";;"http://csojatalaya.wordpress.com / ";"https://www.facebook.com/CSOJ-Atalaya-315084338684113/";"@CSOJ_Atalaya";"Medios de Comunicación";"Cultura";"2015-06-16 20:05:45+00";"organizacion";"Encuentro Diálogo y Corresponsabilidad";"Economía Colaborativa";"Organizaciones y Asociaciones de Vecinos";
"CIVICS";431;"Parroquia San Carlos Borromeo";;"Espacio que trabaja la acogida incondicional como seña de identidad comunitaria. En este lugar y desde hace más de 25 años, un grupo de personas da acogida e integra a jóvenes en dificultades, víctimas de las drogas, a sus familias, a los presos, inmigrantes y, en general, a seres humanos a los que nuestra sociedad excluye.";;"Parroquia San Carlos Borromeo";"C/ Peironcely, 2";;;;"Madrid";"40.382926";"-3.669748";"sancarlos@borromeo.e.telefonica.net";;"http://www.sancarlosborromeo.org/";;;"Asociaciones de Vecinos";"Urbanismo";"2015-06-16 20:05:45+00";"organizacion";"Encuentro Diálogo y Corresponsabilidad";"Urbanismo y Patrimonio";"Conquistas Ciudadanas del Pasado";
"CIVICS";432;"Tele K";;"Medio ciudadano, independiente de cualquier organización política o religiosa. Tiene como objetivo promover una libertad de expresión efectiva y contribuir a un mayor pluralismo informativo dando voz a los movimientos sociales y a las minorías excluidas de los medios de comunicación convencionales, así como facilitar el acceso y la participación de la ciudadanía en los medios.";;"Tele K";"C/ Río Orinoco, 7";;;;"Madrid";"40.386369";"-3.652365";"telekcontacto@gmail.com";;"http://tele-k.org/";" https://www.facebook.com/telek.vallecas";" https://twitter.com/telek_tv";"Asociaciones de Vecinos";"Urbanismo";"2015-06-16 20:05:45+00";"organizacion";"Encuentro Diálogo y Corresponsabilidad";"Urbanismo y Patrimonio";"Iniciativa Ciudadana";
"CIVICS";433;"Omnívoros";;"Plataforma web y taller creativo de alto rendimiento gestionado asociativamente como espacio cooperativo/colaborativo. El Taller Omnívoros es un espacio de recursos productivos dotado con herramienta profesional para elaborar proyectos en multitud de materiales (metal, madera, resinas, mecánica, electricidad, electrónica, fotografía...). El beneficio generado se reinvierte en la mejora del espacio, de los recursos y de la oferta formativa. Se rige por la máxima ""taller hace taller"".";;;"C/ Sierra del Segura, 22";;;;"Madrid";"40.403981";"-3.663798";"facebook.com/omnivoros";;"http://taller.omnivoros.net/";"https://www.facebook.com/omnivoros";"@omnivoros";"Empresa Social";"Mayores, diversidad funcional";"2015-06-16 20:05:45+00";"organizacion";"Encuentro Diálogo y Corresponsabilidad";"Política y Gobernanza";"Organizaciones y Asociaciones de Vecinos";
"CIVICS";437;"Radio Enlace";;"Radio comunitaria que trabaja de forma ininterrumpida desde 1990 para facilitar el acceso de la ciudadanía al medio radiofónico, impulsar la participación ciudadana y contribuir al desarrollo cultural del entorno. Radio Enlace es mucho más que una radio, es, además, un agente social y promotor cultural.";;;"C/ Costa del Sol, 13";;;;"Madrid";"40.473362";"-3.652999";"radioenlace@radioenlace.org";;"http://www.radioenlace.org/";"https://www.facebook.com/radioenlacemadrid";"@Radio_Enlace";"Apoyo Mutuo";"Cultura";"2015-06-16 20:05:45+00";"colectivo";"Encuentro Diálogo y Corresponsabilidad";"Urbanismo y Patrimonio";"Iniciativa Ciudadana";
"CIVICS";438;"Centro Social La Bankarrota";;"Centro Político Kolectivizado. Se plantea como un centro de libre utilización para cualquier colectivo político con el fin de establecer un punto de unión para todos los movimientos sociales del barrio de Moratalaz. Gestionando un espacio común se trata de reforzar los lazos entre las diferentes fuerzas que luchan por la transformación social.";;"Centro Social La Bankarrota";"C/ Encomienda de Palacios, 46";;;;"Madrid";"40.400291";"-3.645237";"labankarrota@riseup.org";;"http://labankarrota.noblogs.org/";"https://www.facebook.com/Cpk-La-Bankarrota-1407407946228645";"@LaBankarrota";"Asociaciones de Vecinos";"Urbanismo";"2015-06-16 20:05:45+00";"organizacion";"Trabajo Colaborativo";"Apoyo Mutuo y Cuidados";"Iniciativa Ciudadana";
"CIVICS";439;"Asociación Caminar";;"Asociación sin ánimo de lucro que inició su andadura en 1988 en el poblado El Pozo del Huevo y se trasladó, en el proceso de realojo de su población, al edificio conocido como El Ruedo. Trabaja para mejorar las condiciones de vida de las familias en desventaja social promoviendo su protagonismo. Abierta a la participación voluntaria, ofrece talleres y cuenta con una ludoteca y una escuela deportiva. ";;;"C/ Félix Rodríguez de la Fuente, 67";;;;"Madrid";"40.415138";"-3.65921";"caminar@asociacioncaminar.org";;"http://www.asociacioncaminar.org/";;;"Asociaciones de Vecinos";"Urbanismo";"2015-06-16 20:05:45+00";"organizacion";"Medios de Comunicación Vecinales";"Cultura Libre";"Iniciativa Ciudadana";
"CIVICS";440;"Oficina de Apoyo Mutuo Ciudad Lineal";;"Espacio en el que conviven varios grupos para defender, reivindicar y poner en práctica el derecho a un trabajo y a una vivienda digna, a una alimentación suficiente y exigir el cumplimiento de los derechos que deben asistir todas las personas migrantes. Espacio de apoyo mutuo y de acceso libre.   ";;;"C/ Santa Felicidad, 13 ";;;;"Madrid";"40.423874";"-3.650345";"apoyomutuociudadlineal@gmail.com";;"https://apoyomutuocl.wordpress.com/";"https://www.facebook.com/apoyomutuodeciudadlineal";"@AM_CLineal";"Consumo";"Ecología";"2015-06-16 20:05:45+00";"colectivo";"Encuentro Diálogo y Corresponsabilidad";"Deporte";"Iniciativa Ciudadana";
"CIVICS";441;"Centro Social La Dragona";;"El edificio de viviendas de los trabajadores del cementerio de La Almudena, abandonado desde hacía años, fue okupado en 2008 por jóvenes del barrio. Hoy es un espacio liberado que alberga un taller de bicis, una biblioteca, una tienda gratis, salas de ensayo, un estudio de grabación... Es, además, un espacio de reunión de colectivos y plataformas sociales.   ";;"Centro Social La Dragona";"Avda. Daroca, 90";;;;"Madrid";"40.42597";"-3.645064";"esoaeldragon@gmail.com";;"http://www.nodo50.org/eldragondelaelipa/";"https://www.facebook.com/EsoaLaDragona";"@dragonaesoa";"Asociaciones de Vecinos";"Urbanismo";"2015-06-16 20:05:45+00";"organizacion";"Trabajo Colaborativo";"Apoyo Mutuo y Cuidados";"Iniciativa Ciudadana";
"CIVICS";442;"Hortaleza Periódico Vecinal";;"Periódico hecho por los vecinos de Hortaleza y para los vecinos de Hortaleza con el objetivo de fomentar la participación y el asociacionismo, impulsar el movimiento vecinal y la participación democrática, contribuir a la pluralidad y a la convivencia y fomentar la comunicación y el acceso a la información más cercana.";;;"C/ Santa Susana, 55 ";;;;"Madrid";"40.480186";"-3.647923";"info@periodicohortaleza.org";;"http://www.periodicohortaleza.org/";"https://www.facebook.com/periodicohortaleza";"@HortalezaPV";"Asociaciones de Vecinos";"Urbanismo";"2015-06-16 20:05:45+00";"organizacion";"Encuentro Diálogo y Corresponsabilidad";"Urbanismo y Patrimonio";"Organizaciones y Asociaciones de Vecinos";
"CIVICS";443;"Oficina de Apoyo Mutuo de Manoteras";;"¿No puedes pagar la hipoteca y temes perder tu vivienda? ¿Tienes dudas con tu alquiler? ¿Piensas que tu empresa está cometiendo algún abuso contra ti y tus compañeros? La Asociación Vecinal Manoteras acoge este espacio de ayuda mutua y solidaridad para construir una sociedad más justa e igualitaria desde lo local. ";;;"C/  Cuevas de Almanzora, 46";;;;"Madrid";"40.478224";"-3.657826";"ofiammanoteras@gmail.com";;"https://ofiam.wordpress.com/";;"@APManoteras";"Networking";"Cultura";"2015-06-16 20:05:45+00";"colectivo";"Encuentro Diálogo y Corresponsabilidad";"Urbanismo y Patrimonio";"Organizaciones y Asociaciones de Vecinos";
"CIVICS";446;"Centro Social La Morada";;"Centro social okupado autogestionado donde se desarrollan diferentes actividades, como talleres de arte, circo, clases de español, swing y biblioteca y todas aquellas que proponga el vecindario. Es, además, espacio de reunión y asamblea de la Oficina de Vivienda, entre otros colectivos.  ";;"Centro Social La Morada";"C/ Casarrubuelos, 5";;;;"Madrid";"40.43448";"-3.707711";"csoalamorada@riseup.net";;"https://csoalamorada.wordpress.com/";"https://www.facebook.com/csoa.lamorada.1";"@CSOALaMorada";"Espacio Vecinal";"Política";"2015-06-16 20:05:45+00";"colectivo";"Centro Social";"Política y Gobernanza";"Organizaciones y Asociaciones de Vecinos";"C/ Divino Pastor, 9, 28004 Madrid, España"
"CIVICS";447;"Ágora Sol Radio";;"Ágora Sol Radio es una emisora que nació a finales de mayo de 2011, al calor del 15M, desde la Acampada Sol en Madrid. Allí, en el corazón de la #SpanishRevolution, rápidamente se evidenció la necesidad de dar voz al movimiento de los indignados. Sobre todo, a la vista de cómo, muchas veces, los medios de comunicación tradicionales ignoraban (cuando no descaradamente deformaban) a un naciente movimiento que no podía entenderse fácilmente desde los esquemas tradicionales. Así, desde la Comisión de Comunicación, junto a otros grupos de trabajo, surgió la subcomisión de radio, que comenzó a emitir el 26 de mayo de 2011.";;"Centro Social Seco";"C/ Luis Peidró, 2";;;;"Madrid";"40.396051";"-3.67308";"contacto@agorasolradio.org";;"http://www.agorasolradio.blogspot.com.es/";"https://www.facebook.com/AgoraSolRadio";"@AgorasolRadio";"Espacio Vecinal";"Ecología";"2015-06-16 20:05:45+00";"colectivo";"Trabajo Colaborativo";"Apoyo Mutuo y Cuidados";"Iniciativa Ciudadana";"C/ del Doctor Fourquet, 24, 28012 Madrid, España"
"CIVICS";448;"Asamblea de Parados de Villaverde";;"Espacio de encuentro, autorganización, ayuda mutua y reivindicación de personas desempleadas, afectadas por contratos de trabajo precarios o preocupadas por conseguir un empleo digno y por exigir una mejora generalizada de los derechos laborales.  ";;;"C/ Acebes, 6";;;;"Madrid";"40.347755";"-3.705042";"desempleadosvillaverde@gmail.com";;"https://paradosdevillaverde.wordpress.com/ ";"https://www.facebook.com/desempleados.villaverde";"@ParadosVillaV";"Asociaciones de Vecinos";"Urbanismo";"2015-06-16 20:05:45+00";"organizacion";"Encuentro Diálogo y Corresponsabilidad";"Apoyo Mutuo y Cuidados";"Iniciativa Ciudadana";
"CIVICS";449;"OMC Radio";;"Entidad de finalidad sociocultural y naturaleza asociativa, democrática y participativa cuya actividad principal es hacer radio. Promueve la convivencia y la participación e y aprovecha el medio radiofónico para divulgar valores de integración, igualdad, interculturalidad, y todos aquellos reflejados en la declaración de los Derechos Humanos de la UNESCO.";;;"C/ Platino 29 bis";;;;"Madrid";"40.3490676";"-3.6910872";"redaccionomcradio@gmail.com";;"http://www.omcradio.org";"https://www.facebook.com/OmcRadio ";"@Omc_Radio";"Empresa Social";"Cuidados";"2015-06-16 20:05:45+00";"organizacion";"Encuentro Diálogo y Corresponsabilidad";"Mediación y Facilitación";"Iniciativa Ciudadana";
"CIVICS";450;"AVV La Unidad de Villaverde Este";;"Iniciativa promovida por los trabajadores del taller de Renfe de Villaverde Bajo para ayudar a las familias más desfavorecidas del barrio. Es un espacio vinculado a la Asociación Vecinal para apoyar y fomentar la autoorganización en la defensa del derecho a una vida digna sin generar dependencia.";;;"C/ Francisco del Pino, 45";;;;"Madrid";"40.350149";"-3.687536";"launidaddevillaverde@gmail.com";;"https://launidadvillaverde.wordpress.com/";"https://www.facebook.com/aavvvillaverde.unidadjoven";"@LaUnidadEste";"Empresa Social";"Cultura";"2015-06-16 20:05:45+00";"organizacion";"Centro Social";"Derechos e Igualdad";"Organizaciones y Asociaciones de Vecinos";"C/ Duque de Alba, 13, 28012 Madrid, España"
"CIVICS";455;"Colectivo Kontracorriente";;"Colectivo con más de 20 años de historia formado por personas de la calle decididas a cambiar lo monótono promoviendo la cultura popular. Organiza conciertos, mercadillos de trueque, festivales de calle y colabora con otras entidades en la organización de kontrafiestas del Pueblo de Vallekas.  ";;;"C/ Colmenar Viejo, 6 - Bajo";;;;"Madrid";"40.375463";"-3.622343";"kontracorrientevk@yahoo.es";;"www.kontracorriente.org";"https://www.facebook.com/kontracorriente.vallekas";;"Empresa Social";"Urbanismo";"2015-06-16 20:05:45+00";"colectivo";"Encuentro Diálogo y Corresponsabilidad";"Apoyo Mutuo y Cuidados";"Iniciativa Ciudadana";
"CIVICS";457;"Plataforma de trabajadores en paro de San Blas";;"Plataforma de trabajadores empleados y desempleados, de todas las edades, condiciones y profesiones, del distrito de San Blas-Canillejas. Pagadores de impuestos directos e indirectos que han contribuido a un sistema del que ahora les sacan y no les protege. Estudiantes. Jóvenes que ni estudian ni han tenido oportunidad de estudiar. Personas que luchan por defender sus derechos fundamentales y sus necesidades básicas.";;;"Plazuela de los Artesanos, 3";;;;"Madrid";"40.427602";"-3.616012";"platrabajadoresenparosanblas@gmail.com";;;"https://www.facebook.com/Plataforma-de-trabajadores-en-paro-San-Blas-Canillejas-157320541101725/";;"Asociaciones de Vecinos";"Urbanismo";"2015-06-16 20:05:45+00";"organizacion";"Centro Social";"Educación Expandida";"Iniciativa Ciudadana";
"CIVICS";458;"Moratacleta - Bicicrítica Moratalaz";;"Masa crítica de ciclistas que sale a las Calles el tercer jueves de cada mes para dar visibilidad a la bicicleta como medio de transporte sostenible y exigir mejoras en las infraescturas viarias y en la normativa de circulación y seguridad. ";;;"Plaza del Encuentro";;;;"Madrid";"40.405462";"-3.651298";;;;"https://www.facebook.com/bicicritica.moratalaz";"@Moratacleta";"Asociaciones de Vecinos";"Urbanismo";"2015-06-16 20:05:45+00";"organizacion";"Encuentro Diálogo y Corresponsabilidad";"Urbanismo y Patrimonio";"Organizaciones y Asociaciones de Vecinos";
"CIVICS";459;"Onda Diamante ";;"Es la radio de la Asociación Vecinal Amistad de Canillejas que recogió el testigo de la antigua Radio Carmona, la última radio libre de Madrid que dejó de emitir por presiones de la Dirección General de Telecomunicaciones. La podéis escuchar en 98.4FM en Canillejas y a través de App Itunein Radio en el resto del mundo";;;"C/ Esfinge, 86";;;;"Madrid";"40.447116";"-3.611567";"avv.canillejas@terra.es";;"http://www.avvcanillejas.org/radio.htm";;"https://twitter.com/ondadiamante";"Empresa Social";"Consumo";"2015-06-16 20:05:45+00";"organizacion";"Encuentro Diálogo y Corresponsabilidad";"Urbanismo y Patrimonio";"Iniciativa Ciudadana";"C/ Embajadores, 41, 28012 Madrid, España"
"CIVICS";461;"Espacio Vecinal Montamarta";;"Jóvenes y asociaciones vecinales de la zona lograron recuperar para el uso de la ciudadanía un edificio municipal de Madrid Salud que llevaba años cerrado. Juntos lograron la cesión de este espacio de 900 m2 que hoy es un centro social abierto y participativo en el que se reúnen entidades del distrito y se desarrollan actividades propuestas y gestionadas por el vecindario: taller de bicis, clases de swing, cinefórum, clases de apoyo escolar, clases de fotografía... ";;"Espacio Vecinal Montamarta";"C/ Montamarta, 7";;;;"Madrid";"40.423028";"-3.621098";"espaciovecinalsb@gmail.com";;"http://evmontamarta.org";"https://www.facebook.com/evmontamarta";;"Espacio Vecinal";"Cultura";"2015-06-16 20:05:45+00";"organizacion";"Encuentro Diálogo y Corresponsabilidad";"Mediación y Facilitación";"Organizaciones y Asociaciones de Vecinos";"C/ de Embajadores, 51, 28045 Madrid, España"
"CIVICS";465;"Plataforma Salvemos la Finca de Torre Arias";;"La quinta de Torre Arias es una finca de 18 hectáreas de extensión con jardines, huertas, arroyos, puentes y un palacio de torreones almenados que su propietaria cedió al Ayuntamiento de Madrid a condición de que fuera de uso público. La plataforma ciudadana trabaja para que el Ayuntamiento rehabilite todos sus elementos arquitectónicos, conserve el patrimonio natural y garantice su uso cien por cien público. ";;;"C/ Alcalá, 550";;;;"Madrid";"40.443747";"-3.616998";"av.canillejas@gmail.com";;;"https://www.facebook.com/TORRE-ARIAS-Plataforma-247193198817160/";;"Centro Social";;"2015-06-16 20:05:45+00";"colectivo";"Encuentro Diálogo y Corresponsabilidad";"Urbanismo y Patrimonio";"Organizaciones y Asociaciones de Vecinos";"C/ de Embajadores, 52, 28012 Madrid, España"
"CIVICS";467;"Asamblea de Parados de Fontarrón";;"Asamblea de personas paradas, precarias y afectadas por la crisis es impulsar nuevos espacios de participación abiertos, plurales y radicalmente democráticos, donde personas de diferentes ideas, con o sin ninguna afiliación sindical, puedan compartir sus puntos de vista, problemas, y decidir cómo defender sus derechos sociales ante la crisis.";;;"C/ Ramón Pérez de Ayala, 106";;;;"Madrid";"40.398264";"-3.653611";"asambleaparadosfontarron@gmail.com";;"http://asambleaparadosfontarron.blogspot.com.es/";"https://www.facebook.com/Asamblea-De-Parados-De-Fontarr%C3%B3n-270330119778708/";;"Apoyo Mutuo";"Cultura";"2015-06-16 20:05:45+00";"colectivo";"Encuentro Diálogo y Corresponsabilidad";"Urbanismo y Patrimonio";"Organizaciones y Asociaciones de Vecinos";
"CIVICS";483;"Fundación Iniciativas Sur";;"Facilitar la inserción laboral de las personas sin empleo y su desarrollo integral, fundamentalmente mediante la formación ocupacional, pero también a través de otras iniciativas que fomenten el empleo y el desarrollo local en el Sur de Madrid, propiciando un marco de aprendizaje y desarrollo personal basado en una perspectiva social de solidaridad que propicie valores como la tolerancia y el respeto a las personas.";;;"Plaza de la Asociación, 1-3";;;;"Madrid";"40.3696621416247";"-3.70830416679382";"fundacionini@iniciativassur.com";913412698;"www.iniciativassur.com";;;"Centro Social";;"2015-06-16 20:05:45+00";"colectivo";"Encuentro Diálogo y Corresponsabilidad";"Urbanismo y Patrimonio";"Organizaciones y Asociaciones de Vecinos";"C/ de la Encomienda de Palacios, 46, 28030 Madrid, España"
"CIVICS";485;"Cumpleaños en el bloque";;"Proyecto de arquitectura y espacio doméstico donde se trabaja con comunidades de vecinos y bloques históricos para reivindicar los bloques de viviendas y mejorar la cohesión de sus habitantes. Montamos una exposición con el pasado y el presente del bloque con sus vecinos en el mismo edificio, y celebramos los años de vida doméstica.";;;"C/ Rodrigo de Guevara, 2";;;;"Madrid";"40.409313";"-3.70892170000002";"cumpleanosenelbloque@gmail.com";;"www.cumpleanosenelbloque.com";"www.facebook.com/cumpleenelbloque";"@cumplebloque";"Asociaciones de Vecinos";"Urbanismo";"2015-06-16 20:05:45+00";"organizacion";"Encuentro Diálogo y Corresponsabilidad";"Derechos e Igualdad";"Iniciativa Ciudadana";
"CIVICS";486;"Mayrit Escuela Activa";;"Cooperativa educativa de infantil y primaria formada por padres, madres y educadores dentro del marco de la pedagogía activa y respetuosa. Homologado como colegio internacional. Filosofía de ecosostenibilidad y economía del bien común en su relación con trabajadores y servicios externos.";;;"C/ Rodríguez Lázaro, 17";;;;"Madrid";"40.3773379";"-3.74509339999997";"info@mayritescuelaactiva.org";600641007;"http://www.mayritescuelaactiva.org";"https://www.facebook.com/mayritescuelaactiva";;"Empresa Social";"Ecología";"2015-06-16 20:05:45+00";"organizacion";"Encuentro Diálogo y Corresponsabilidad";"Urbanismo y Patrimonio";"Iniciativa Ciudadana";"C/ Escuadra, 11, 28012 Madrid, España"
"CIVICS";487;"Asociación Vecinal La Flor";;"Desde hace años funcionando como un grupo motor en el ámbito vecinal, con el objetivo de construir un ámbito político ciudadano cooperativo, con democracias directas, inclusivas y participativas. Se caracteriza por articular las actuaciones movimentistas con las actuaciones en el ámbito institucional,  participando con una gran actividad propositiva y crítica frente al modelo de participación impuesto, e impulsando paralelamente iniciativas de base colaborativas con otros colectivos. ";;;"Plaza Corcubión, 16";;;;"Madrid";"40.4767453";"-3.70735400000001";"avlaflor@avlaflor.org";670325410;"www.avlaflor.org";"https://www.facebook.com/Asociación-Vecinal-La-Flor";"@LaflorAv";"Asociaciones de Vecinos";"Urbanismo";"2015-06-16 20:05:45+00";"organizacion";"Encuentro Diálogo y Corresponsabilidad";"Urbanismo y Patrimonio";"Organizaciones y Asociaciones de Vecinos";
"CIVICS";488;"Red de Solidaridad Popular - Getafe";;"Esta iniciativa se ha ido extendiendo con éxito en muchos pueblos de Estado español para combatir con criterios de lucha política, autoorganización y sin recurrir en la caridad, los devastadores efectos de la crisis sobre un número creciente de ciudadanos y ciudadanas. En su creación resumían esta acción como “pasar de la resistencia a la autodefensa, el apoyo mutuo y la construcción de poder popular” .";;"Centro Cívico Juan de la Cierva";"Plaza de las Provincias, s/n";;;;"Getafe";"40.3156239";"-3.71812469999998";"rspgetafe@gmail.com";;"http://www.reddesolidaridadpopular.org/red/getafe";"https://www.facebook.com/Red-de-Solidaridad-Popular-Getafe-1599372463618878/timeline/";"@rsp_getafe";"Medios de Comunicación";"Cultura";"2015-06-16 20:05:45+00";"organizacion";"Trabajo Colaborativo";"Urbanismo y Patrimonio";"Organizaciones y Asociaciones de Vecinos";"C/ de la Esfinge, 86, 28022 Madrid, Spain"
"CIVICS";492;"Red de Solidaridad Popular - Rivas";;"Es un instrumento de resistencia y de lucha contra las políticas neoliberales que están abocando a la pobreza y a la falta de oportunidades a las capas populares y trabajadoras. A través de la articulación de redes de solidaridad y de la auto-organización popular, se dará respuesta a las necesidades más urgentes que sufren muchas personas en los barrios de nuestras ciudades y pueblos, a la vez que se construirán alternativas superadoras del actual sistema político y económico.";;;"Plaza Rafael Alberti, 9 - Bajo";;;;"Rivas Vaciamadrid";"40.3519065";"-3.53573340000003";"rivas@reddesolidaridadpopular.org";649924856;"http://www.reddesolidaridadpopular.org/";"https://www.facebook.com/RedSolidaridadPopular?ref=ts&fref=ts";"@RedSolidaridad";"Espacio Vecinal";"Cultura";"2015-06-16 20:05:45+00";"colectivo";"Encuentro Diálogo y Corresponsabilidad";"Derechos e Igualdad";"Iniciativa Ciudadana";
"CIVICS";493;"Asamblea 15M Malasaña";;"La Asamblea de Barrio ""Malasaña - Dos de Mayo"" es un espacio público y horizontal en el que los vecinos podemos participar y tomar decisiones sobre los temas que nos afectan, desde los más cercanos que pueden cambiar nuestro barrio a los más globales que pueden interesar a toda nuestra sociedad. Nos reunimos el primer sábado de cada mes  a las 19:00 en verano (salvo julio/agosto/septiembre que no realizamos asamblea física) y a las 13:00 en invierno, en la Plaza del Dos de Mayo.";;;"Plaza del 2 de Mayo";;;;"Madrid";"40.4270047";"-3.7040101";"infoasamblea.dosdemayo@gmail.com";;"https://dosdemayo.tomalosbarrios.net/";"www.facebook.com/asamblea.malasana.dosdemayo";"@am_dosdemayo";"Escuela";"Derechos Humanos";"2015-06-16 20:05:45+00";"organizacion";"Encuentro Diálogo y Corresponsabilidad";"Urbanismo y Patrimonio";"Iniciativa Ciudadana";"C/ Félix Rodríguez de la Fuente, 67, 28030 Madrid, España"
"CIVICS";496;"Corazón Verde de Chamberí";;"Colectivo Ciudadano que trata de mejorar las condiciones urbanas de Madrid y de Chamberí en particular. Dada la problemática actual del distrito, prestamos especial atención a la defensa del Patrimonio y del espacio público frente a la especulación urbanística, con vistas a conseguir parques y dotaciones de calidad. Integrados en la Plataforma No a este Plan.";;"AVV El Organillo";"C/ Meléndez Valdes, 24";;;;"Madrid";"40.4329706690987";"-3.7107852101326";"urbanismochamberi@gmail.com";;"https://corazonverdechamberi.wordpress.com";;"@verdechamberi";"Asociaciones de Vecinos";"Urbanismo";"2015-06-16 20:05:45+00";"organizacion";"Encuentro Diálogo y Corresponsabilidad";"Ecología Urbana y Consumo";"Organizaciones y Asociaciones de Vecinos";"C/ Francisco del Pino, 45, 28021 Madrid, España"
"CIVICS";497;"Liga Cooperativa Basket";;"Es una liga alternativa, una liga nacida desde lxs deportistas y dedicada a lxs deportistas, somos nosotrxs mismxs, lxs que jugamos en la Liga lxs que la gestionamos (tu también), una Liga sin ánimo de lucro, y con mucho ánimo de conocer gente y de cambiar el barrio mediante el deporte. Una alternativa diferente a las institucionales que sentimos muy alejadas de las necesidades de la gente y muy exigentes en lo económico, lo que las hacen prácticamente inaccesibles.";;"Liga Cooperativa Basket";;"sin dirección";;;"Madrid";"40.4575884183341";"-3.6540162563324";"ligabasketcooperativa@gmail.com";;"http://ligabasketcooperativa.org";"https://www.facebook.com/ligabasketcooperativa";"@ligacooperativa";"Asociaciones de Vecinos";"Urbanismo";"2015-06-16 20:05:45+00";"organizacion";"Trabajo Colaborativo";"Ecología Urbana y Consumo";"Organizaciones y Asociaciones de Vecinos";
"CIVICS";498;"Red de Solidaridad Popular - Centro-Arganzuela";;"La Red de Solidaridad Popular pretende organizar la solidaridad de toda la clase trabajadora y de las capas populares con las víctimas de las políticas de “austeridad”. Sin asistencialismo. Desde la autorganización y el empoderamiento popular. Somos una organización antifascista, antiracista y feminista, cuyo objetivo es remar hacia otro modelo de sociedad. Trabajamos, sobretodo, 4 ejes: Soberanía Alimentaria, Orientación Jurídica, Educación Pública y Sanidad Universal. ";;;"C/ Olmo, 18";;;;"Madrid";"40.4115214";"-3.7001368";"rsp.madrid.centro@gmail.com";;"http://www.reddesolidaridadpopular.org/red/centro-arganzuela";"https://www.facebook.com/RSPCentroArganzuela";"@RSP_Centro";"Asociaciones de Vecinos";"Urbanismo";"2015-06-16 20:05:45+00";"organizacion";"Encuentro Diálogo y Corresponsabilidad";"Educación Expandida";"Organizaciones y Asociaciones de Vecinos";
"CIVICS";500;"La Galería de Magdalena";;"La galería de Magdalena es una plataforma cultural que se realiza en el espacio público, sobre todo en edificios en obras (aunque también en otros lugares infravalorados como solares y demás lugares que detectamos como oportunidades de intervención) transformándolos en soportes destinados a exposiciones temporales en las que todo lo que se expone se regala, #RegalosUrbanos.";;;"C/ Magdalena, 10";;;;"Madrid";"40.4123476";"-3.70215540000004";"lagaleriademagdalena@gmail.com";;"www.lagaleriademagdalena.com";;;"Centro Social";;"2015-06-16 20:05:45+00";"organizacion";"Otros";"Urbanismo y Patrimonio";"Organizaciones y Asociaciones de Vecinos";
"CIVICS";501;"Carabancheleando";;"Carabancheleando es un plataforma formada por personas de aquí y de allá. La mayoría vivimos en periferias urbanas como Carabanchel. ";;;"C/ Ánade, 10";;;;"Madrid";"40.39173";"-3.73108000000002";"carabancheleando@gmail.com";;"https://carabancheleando.wordpress.com/";;;"Medios de Comunicación";"Economía";"2015-06-16 20:05:45+00";"organizacion";"Encuentro Diálogo y Corresponsabilidad";"Mediación y Facilitación";"Organizaciones y Asociaciones de Vecinos";"C/ del General Oraá, 39, 28006 Madrid, España"
"CIVICS";504;"AVV Nudo Sur";;"Asociación vecinal de los barrios de Legazpi, Chopera y Delicias integrada por vecinos que trabajan por un barrio más habitable, solidario y participativo. Luchan contra la degradación ambiental del distrito y reclaman equipamientos educativos (sobre todo un instituto), sociales y culturales públicos y la cesión del mercado de frutas y verduras de Legazpi para las entidades del distrito, entre otras. ";;;"C/ Puerto de Béjar, 22";;;;"Madrid";"40.3880269";"-3.68685300000004";"afectados@afectadosnudosur.com";;"www.afectadosnudosur.com";"https://www.facebook.com/nudosur";"@nudosur";"Networking";"Ecología";"2015-06-16 20:05:45+00";"colectivo";"Otros";"Urbanismo y Patrimonio";"Organizaciones y Asociaciones de Vecinos";
"CIVICS";505;"AVV Nuevo Legazpi ";;"La asociación vecinal de Legazpi nació con la vocación de aglutinar a todas las personas interesadas en transformar el barrio en un lugar mejor para vivir luchando de forma específica contra el incremento del tráfico rodado de la zona. Reclama, junto con el resto de entidades del distrito, la cesión del mercado de frutas y verduras de Legazpi para crear un espacio público de autogestión ciudadana.    ";;;"C/ Puerto de Béjar, 14";;;;"Madrid";"40.3875582";"-3.68790650000005";"avnuevolegazpi@gmail.com";;"http://avnuevolegazpi.es/";;"@avnuevolegazpi";"Asociaciones de Vecinos";"Urbanismo";"2015-06-16 20:05:45+00";"organizacion";"Encuentro Diálogo y Corresponsabilidad";"Urbanismo y Patrimonio";"Organizaciones y Asociaciones de Vecinos";
"CIVICS";506;"AVV Pasillo Verde-Imperial";;"Asociación vecinal integrada por personas interesadas en trabajar de forma altruista y voluntaria por la mejora del barrio. Entre otros frentes, han luchado contra la operación urbanística Mahou-Calderón, sometida a intereses especulativos. Carece de local público, al igual que el resto de asociaciones vecinales del distrito, por lo que reclama la cesión del mercado de frutas y verduras de Legazpi para crear un espacio público de autogestión ciudadana. ";;;"C/ Gasómetro, 11";;;;"Madrid";"40.40426";"-3.70801000000006";"avpasilloverde.imperial@gmail.com";;"www.avpasilloverdeimperial.org";"https://www.facebook.com/avpasilloverdeimperial";;"Asociaciones de Vecinos";"Urbanismo";"2015-06-16 20:05:45+00";"organizacion";"Encuentro Diálogo y Corresponsabilidad";"Apoyo Mutuo y Cuidados";"Iniciativa Ciudadana";
"CIVICS";507;"Asoc. Cultural Amigos del Jardín de El Capricho";;"Asociación que trabaja en la promoción de los valores histórico-artísticos, paisajísticos, ambientales y pedagógicos, en la difusión de su historia y en la defensa de la integridad territorial y medioambiental del jardín El Capricho, declarado Bien de Interés Cultural en la categoría de jardín histórico.    ";;;"Avda. de Cantabria, 50";;;;"Madrid";"40.4582599";"-3.58367840000005";"acelcapricho@gmail.com";;"http://www.aavvmadrid.org/";;;"Asociaciones de Vecinos";"Urbanismo";"2015-06-16 20:05:45+00";"organizacion";"Centro Social";"Ecología Urbana y Consumo";"Organizaciones y Asociaciones de Vecinos";
"CIVICS";508;"Asoc. Familiar Alfonso de Ojeda de Vecinos de la Alameda de Osuna";;"Es la asociación vecinal decana del distrito. Constituida en octubre de 1973, la entidad ha trabajado y trabaja por la mejora del transporte público, por la conquista de equipamientos públicos (un ambulatorio, colegios...) y, sobre todo, contra el ruido provocado por el aeropuerto de Barajas y contra la permanencia del depósito de queroseno. Participa en la Plataforma de Alimentos Distrito 21.   ";;;"C/ Canoa, 11";;;;"Madrid";"40.45208";"-3.58958000000007";"asociacionafao@gmail.com";;"www.afaoweb.blogspot.com.es";;;"Asociaciones de Vecinos";"Urbanismo";"2015-06-16 20:05:45+00";"organizacion";"Centro Social";"Otra";"Organizaciones y Asociaciones de Vecinos";
"CIVICS";510;"FRAMV";;"Federación regional de asociaciones de vecinos ";;"FRAMV";"C/ Camino de Vinateros, 53";;;;"Madrid";"40.41109";"-3.65300000000002";"fravm@aavvmadrid.org";917252909;"http://www.aavvmadrid.org/";"https://www.facebook.com/FRAVM-Federaci%C3%B3n-Regional-de-Asociaciones-Vecinales-de-Madrid-308382639145/timeline/?ref=ts";"@FRAVM";"Asociaciones de Vecinos";"Urbanismo";"2015-09-09 14:41:17.711705+00";"organizacion";"Encuentro Diálogo y Corresponsabilidad";"Movilidad Sostenible";"Organizaciones y Asociaciones de Vecinos";
"CIVICS";511;"Red de Solidaridad Popular - Puente de Vallekas";;"La RSP pretende organizar la solidaridad de toda la clase trabajadora y de las capas populares con las víctimas de las políticas de “austeridad"". Sin asistencialismo. Desde la autorganización y el empoderamiento popular. Somos una organización antifascista, antiracista y feminista, cuyo objetivo es remar hacia otro modelo de sociedad. Tenemos los siguientes grupos de trabajo: Despensa Solidaria, Ropero Popular,Asesoría Jurídica,Clases de Castellano y de Árabe,Grupo de Mujeres,Huerto comunitario.";;"AVV Pozo del Tio Raimundo";"Avda. de las Glorietas, 19-21";;;;"Madrid";"40.3735937";"-3.66023770000004";"redsolidaridadpopularvallekas@gmail.com";652028607;"http://www.reddesolidaridadpopular.org/red/pte-vallekas";"https://www.facebook.com/rsp.vallekas";"@RspVallekas";"Movilidad";"Derechos Humanos";"2015-09-09 20:07:15.010786+00";"organizacion";"Despensas Solidarias y Bancos de Intercambio";"Apoyo Mutuo y Cuidados";"Iniciativa Ciudadana";
"CIVICS";516;"La Comunidad Verde ";;"LA COMUNIDAD VERDE es la organización sin ánimo de lucro que reúne a destacadas asociaciones de la jardinería y las áreas verdes para la promoción de estas actividades y la divulgación de sus beneficios para la sociedad. Constituida como Federación, cuenta con organizaciones representativas de una amplia mayoría de profesionales, empresas y actividades que forman este sector: arboricultura, centros de jardinería, greenkeepers, protección de las plantas, maquinaria de jardinería, productos.";;;"C/ Miguel Ángel, 7";;;;"Madrid";"40.4345575";"-3.69147090000001";"lcv@lacomunidadverde.com";676952876;"http://www.lacomunidadverde.com/";"https://www.facebook.com/LaComunidadVerdeOrg/timeline/";"@LCVerde";"Asociaciones de Vecinos";"Urbanismo";"2015-09-10 07:23:50.459409+00";"organizacion";"Encuentro Diálogo y Corresponsabilidad";"Mediación y Facilitación";"Organizaciones y Asociaciones de Vecinos";
"CIVICS";517;"Salsa Tabacalera";;"Salsa Tabacalera es un colectivo autogestionado que semanalmente ofrece un taller gratuito para aprender a bailar salsa. Tiene más de cinco años de actividad ininterrumpida. Su sede principal es CSA Tabacalera (excepto temporada de verano cuyas actividades se realizan en El Retiro. Cada año organiza también el festival Son y Sol. Se constituye como un espacio alternativo y diferenciado de la vertiente meramente comercial salsera que se ofrece en la ciudad.";;;"C/ de Embajadores, 51";;;;"Madrid";"40.4015097";"-3.69970439999997";"salsatabacalera@gmail.com";;;"https://www.facebook.com/profile.php?id=100007621005442";;"Asociaciones de Vecinos";"Urbanismo";"2015-09-11 11:25:06.52699+00";"organizacion";"Encuentro Diálogo y Corresponsabilidad";"Urbanismo y Patrimonio";"Iniciativa Ciudadana";
"CIVICS";519;"Club de Lectura de Vicálvaro";;"Un grupo abierto de vecinos nos reunimos una vez al mes en la biblioteca pública para comentar un libro, de forma autogestionada";;;"C/ Villar Dondiego, 22";;;;"Madrid";"40.406956";"-3.60838620000004";"clublecturavucalvaro@gmail.com";656352503;;"www.facebook.com/clublecturavicalvaro";;"Asociaciones de Vecinos";"Urbanismo";"2015-09-11 11:32:03.062955+00";"organizacion";"Encuentro Diálogo y Corresponsabilidad";"Política y Gobernanza";"Iniciativa Ciudadana";
"CIVICS";520;"Estudio de Madrización";;"En pleno centro del barrio de Malasaña, Madrización ha creado un espacio para la tertulias, reuniones y puestas en marcha de proyectos para este colectivo itinerante que es una corriente. Nos interesa todo lo que tiene que ver con la creatividad, la construcción de forma e imagen, Madrización es una corriente de la new age que une, crea sinergias de colaboración entre los miembros de este colectivo itinerante para desarrollar proyectos que cuestionen estructuras establecidas que no funcionan.";;"Estudio de Madrización";"C/ Espiritu Santo, 11";;;;"Madrid";"40.4251685";"-3.70301910000001";"puente@madrizacion.com";912606883;"www.madrizacion.com";"https://www.facebook.com/estudiodemadrizacion";"@madrizacion";"Espacio Vecinal";"Arte";"2015-09-11 11:37:11.883921+00";"colectivo";"Encuentro Diálogo y Corresponsabilidad";"Mediación y Facilitación";"Organizaciones y Asociaciones de Vecinos";
"CIVICS";524;"Asociacion Vecinal La Luna";;"Asociación Vecinal del Barrio de La Luna trabaja desde la participacion en la reconquista de los espacios públicos, luchamos para mejorar el entorno de nuestro barrio involucrando a los/as vecinos/as en ese cambio.";;;"C/ Manuela Malasaña, 7";;;;"Madrid";"40.3766945";"-3.54149519999999";"aavvlaluna@gmail.com";;"http://aavvlaluna.blogspot.es";"https://www.facebook.com/aavvlaluna";"@aavvlaluna";"Asociaciones de Vecinos";"Urbanismo";"2015-09-15 22:02:13.367964+00";"organizacion";"Encuentro Diálogo y Corresponsabilidad";"Cultura Libre";"Organizaciones y Asociaciones de Vecinos";
"CIVICS";525;"Alcohólicos Rehabilitados Asociación Madrileña";"ARAM";"Grupos de Auto-Ayuda para enfermos alcohólicos y familiares";;;"C/ Tracia, 6 - 1º";;;;"Madrid";"40.4396681";"-3.62909239999999";"aram@telefonica.net";913041403;"http://www.aramasociacionalcoholicos.org/";;;"Apoyo Mutuo";"Educación";"2015-09-16 09:04:37.241825+00";"organizacion";"Encuentro Diálogo y Corresponsabilidad";"Mediación y Facilitación";"Organizaciones y Asociaciones de Vecinos";
"CIVICS";530;"Escuela Deportiva Dosa";;"Escuela deportiva fundada por antiguos alumnos del Colegio en los años 50. Reconocido como entidad de carácter social, sin ánimo de lucro. Instalaciones al aire libre: campo de baloncesto, de minibasket, campo de fútbol de hierba artificial, campos de futbol sala, campos de voleivol. Instalaciones cubiertas: gimnasio, sala de medios audiovisuales, aulas con viedo para explicación teórica.";;"Escuela Deportiva Dosa";"C/ Santo Domingo Savio, 2";;;;"Madrid";"40.4299377828886";"-3.63456493264164";"cfgs@salesianosdosa.com";913683100;"http://www.salesianosdosa.com/";"https://www.facebook.com/salesianossantodomingosavio";"https://twitter.com/salesianosdosa";"Asociaciones de Vecinos";"Urbanismo";"2015-09-16 10:51:52.596269+00";"organizacion";"Encuentro Diálogo y Corresponsabilidad";"Deporte";"Organizaciones y Asociaciones de Vecinos";
"CIVICS";531;"Costa Fleming";;"Asociación para comerciantes de la Costa Fleming. Plataforma en la que dinamizamos las empresas y locales, generarmos el asociacionismo entre los comercios, protegemos el negocio tradicional, y atraemos nuevas formas de negocio, damos a conocer toda la oferta cultural y de ocio del barrio, los comercios, gastronomía, las tiendas... #makingbarrio";;;"C/ Felix Boix, 14 - 2 C";;;;"Madrid";"40.463012";"-3.68655850000005";"hola@costafleming.es";669058245;"http://costafleming.es";"www.facebook.com/laCostaFleming";"@costa_fleming";"Asociaciones de Vecinos";"Urbanismo";"2015-09-16 11:00:15.262011+00";"organizacion";"Encuentro Diálogo y Corresponsabilidad";"Cultura Libre";"Iniciativa Ciudadana";
"CIVICS";532;"Getafe Vecinal";;"Se trata de un medio de información alternativo, que trabaja por y para las vecinas de Getafe y que se crea de manera participativa, ya que está abierto a que cualquier persona de la población pueda escribir en él. Tiene una línea digital, otra en papel periódico y otra de radio.";;"Getafe Vecinal";;"sin dirección";;;"Getafe";;;"getafevecinal@gmail.com";;"https://getafevecinal.wordpress.com/";"https://www.facebook.com/groups/448983858482276";"@getafevecial";"Escuela";;"2015-09-16 11:18:44.760612+00";"organizacion";"Medios de Comunicación Vecinales";"Urbanismo y Patrimonio";"Organizaciones y Asociaciones de Vecinos";"C/ Luis Cabrera, 19, 28002 Madrid, España"
"CIVICS";533;"Centro Social Comunitario ""Josefa Amar""";;"Este centro, llamado Social-comunitario nace para responder a la demanda vecinal de un lugar de reunión y de servicio para las necesidades sociales, principalmente las de las asociaciones del distrito, cuyo espacio en ocasiones es reducido o limitado por sus escasas condiciones económicas.";;"Centro Social Comunitario ""Josefa Amar""";"C/ General Aranda, 30";;;;"Madrid";"40.4731095";"-3.69382300000007";"csctetuan@gmail.com";917330258;"http://www.tetuanparticipa.org/";;;"Fundación";"Derechos Humanos";"2015-09-16 11:23:17.436525+00";"organizacion";"Solares y Espacios Recuperados";"Derechos e Igualdad";"Organizaciones y Asociaciones de Vecinos";
"CIVICS";534;"Red Internacional de Educación";"RIE";"RIE es una entidad sin ánimo de lucro fundada en 2013 formada por personas y centros educativos que buscan la transformación y la renovación educativa. Ante la desorientación y las graves dificultades que están sufriendo las escuelas, RIE ofrece proyectos, publicaciones, cursos y programas de apoyo e intervención directa dentro y fuera de España.";;;"C/ Las Eras, 39";;;;"Villaviciosa de Odón";"40.357521";"-3.90165320000006";"info@rieducacion.org";;"http://rieducacion.org/";"https://www.facebook.com/rieducacion";"https://twitter.com/RIEducacion";"Deporte";;"2015-09-16 11:33:10.112149+00";"colectivo";"Encuentro Diálogo y Corresponsabilidad";"Apoyo Mutuo y Cuidados";"Iniciativa Ciudadana";"C/ de Luis Mitjans, 56, 28007 Madrid, España"
"CIVICS";535;"Fundación La Semilla";;"Entidad sin ánimo de lucro constituida en 1999. Tiene como fines principales realizar actividades socio-culturales, principalmente teatrales, para la difusión de la solidaridad, la cultura y la educación. Colabora en la atención de personas en riesgo de exclusión por razones físicas, sociales o culturales y contribuye a la puesta en marcha de proyectos de desarrollo en países empobrecidos mediante la cooperación con distintas ONG.";;;"C/ Luis Mitjans, 10";;;;"Madrid";"40.39982";"-3.67052000000001";"info@fundacionlasemilla.es";;"http://www.fundacionlasemilla.es/";"https://www.facebook.com/fundacionlasemilla";;"Medios de Comunicación";"Política";"2015-09-16 11:48:32.323944+00";"colectivo";"Encuentro Diálogo y Corresponsabilidad";"Educación Expandida";"Organizaciones y Asociaciones de Vecinos";"C/ Luis Peidró, 2, 28007 Madrid, España"
"CIVICS";536;"ACE Chamberí";;"Asociación de Comerciantes y Empresarios de Chamberí";;;"C/ Alenza, 20";;;;"Madrid";"40.44467";"-3.69992000000002";"info@acechamberi.com";657986259;"www.acechamberi.com";"www.facebook.com/acecamberi";"@acechamberi";"Centro Social";;"2015-09-16 12:27:35.388363+00";"colectivo";"Trabajo Colaborativo";"Ecología Urbana y Consumo";"Iniciativa Ciudadana";"C/ Luis Peidró, 2, 28007 Madrid, España"
"CIVICS";540;"Escuela de Charangas de Vallecas";;"Escuela popular y autogestionada de charangas con más de 25 años de trayectoria. ";;;"Avda. Pablo Neruda, 5";;;;"Madrid";"40.3925850707882";"-3.64064255523681";"ephemero25@gmail.com";691666287;"http://escueladecharangasdevallecas.blogspot.com.es/";"http://escueladecharangasdevallecas.blogspot.com.es/";;"Apoyo Mutuo";"Derechos Humanos";"2015-09-17 07:35:57.636625+00";"colectivo";"Medios de Comunicación Vecinales";"Derechos e Igualdad";"Asambleas Populares, Mareas, Plataformas y Grupos de Trabajo";"C/ Luis Peidró, 2, 28007 Madrid, España"
"CIVICS";541;"AVV Virgen de Begoña";;"Los vecinos se han movilizado para pedir a las autoridades que rehabiliten el barrio -sin reformar desde mediados del siglo pasado-, lo modernicen y lo adapten a sus necesidades.";;;"San Dacio, 10";;;;"Madrid";"40.4849911";"-3.68833070000005";"vecinosdebegona@gmail.com";;"http://asociacionvecinosbegona.blogspot.com.es/";;;"Asociaciones de Vecinos";"Urbanismo";"2015-09-17 07:38:43.563072+00";"organizacion";"Encuentro Diálogo y Corresponsabilidad";"Mediación y Facilitación";"Organizaciones y Asociaciones de Vecinos";
"CIVICS";542;"Catas de Vino Solidarias";;"En CATAS DE VINO SOLIDARIAS hacemos catas en locales de Madrid, enotecas y a domicilio siempre que haya un mínimo de 10 personas (para que una recaudación mínima sea alcanzada siempre) y la ONG elegida por el organizador o los alumnos sea transparente. Recaudamos una media de 250 euros limpios al mes para diversas ONG's como Cirugía En Turkana, Arbio Peru, Survival, AECC, Unicef, Agencia Española para el Refugiado, etc";;;"C/ de Segovia, 16";;;;"Madrid";"40.4138092";"-3.7113689";"catasdevinosolidarias@outlook.es";;;"www.facebook.com/catasdeVinoSolidarias";;"Empresa Social";"Arte";"2015-09-17 07:42:09.566568+00";"organizacion";"Trabajo Colaborativo";"Urbanismo y Patrimonio";"Organizaciones y Asociaciones de Vecinos";
"CIVICS";545;"Plataforma Auditoría Ciudadana de la Deuda";;"Desde el 25 de marzo de 2012 se puso ya en marcha la Plataforma Auditoria Ciudadana de la Deuda (PACD) “No debemos, No pagamos”. En la actualidad estamos constituidos diferentes nodos de la PACD entre ellos el de la PacdMadrid. Nuestros objetivos además de definir cómo queremos que sea la auditoría, qué deudas queremos auditar, quién debe participar en este proceso y con qué objetivos y límites de ilegitimidad;es un cambio de sistema, en el que las personas y el medio ambiente estén en el centro";;"Plataforma Auditoría Ciudadana de la Deuda";;"sin dirección";;;"Madrid";;;"pacd.madrid@gmail.com";;"www.auditoriaciudadana.net";;;"Medios de Comunicación";"Política";"2015-09-17 13:18:26.113857+00";"organizacion";"Encuentro Diálogo y Corresponsabilidad";"Derechos e Igualdad";"Asambleas Populares, Mareas, Plataformas y Grupos de Trabajo";"C/ Magnolias, 35, 28029 Madrid, España"
"CIVICS";546;"Asociación Vecinal Plus Ultra";;"Somos una asociación vecinal , con 50 años de antigÜedad. Durante muchos años la Asociación estuvo adormilada, pero la gente que ahora trabaja en ella está haciendo todo lo posible por hacerla revivir. Realizamos muchas actividades socio culturales, formamos parte de la Plataforma Contra el Cierre de Urgencias, damos apoyo escolar a chavalxs de la zona , talleres, videforums,....";;;"C/ Gran Poder, 6 - Bajo";;;;"Madrid";"40.4703185857813";"-3.58433246612549";"aa.vv.plusultra@gmail.com";917477137;"avplusultra.jimdo.com";"https://www.facebook.com/AVplusultra";"@AVplusultra";"Empresa Social";"Educación";"2015-09-17 18:31:10.474599+00";"organizacion";"Despensas Solidarias y Bancos de Intercambio";"Ecología Urbana y Consumo";"Iniciativa Ciudadana";"C/ Manuel Laguna, 19, 28018 Madrid, España"
"CIVICS";549;"AVV PAU del Ensanche de Vallecas";;"Asociación vecinal creada en marzo de 2003 para evitar los abusos en las adquisiciones de viviendas en el Ensanche de Vallecas y mejorar las condiciones de vida de sus actuales y futuros habitantes, que podemos resumir en la mejora de las dotaciones del barrio, la participación ciudadana y la toma de conciencia por las administraciones y agentes sociales  acerca de los problemas de abandono institucional que sufrimos los nuevos desarrollos urbanísticos. Forma parte de la FRAVM.";;;"C/ Baños de Valdearados, 15";;;;"Madrid";"40.3679570349983";"-3.61047609178775";"administracion@paudevallecas.org";913856935;"www.paudevallecas.org";"https://www.facebook.com/avpaudevallecas";"@avpaudevallecas";"Asociaciones de Vecinos";"Urbanismo";"2015-09-18 05:38:14.575974+00";"organizacion";"Derivas y Rutas Urbanas";"Movilidad Sostenible";"Iniciativa Ciudadana";
"CIVICS";551;"KLOUVI, Arte en Transformación";;"Klouvi  es una tienda- taller  cuyo objetivo es crear y sostener un espacio de trabajo abierto al intercambio donde lo singular  se enriquezca de la labor colectiva con otros artistas, diseñadores y artesanos. Gestionado asociativamente  damos a conocer nuestros trabajos de obra gráfica, restauración, diseño textil y artesanías así como la de otros artistas y diseñadores  invitados. Apostamos por el  trabajo artesanal  y ofrecemos al público  cursos de grabado, restauración y costura (entre otros).";;;"C/ Santa Ana, 6 - Local 1";;;;"Madrid";"40.4168578";"-3.7117457";"info.klouvi@gmail.com";;"www.klouvi.org";"https://www.facebook.com/klouvi";;"Asociaciones de Vecinos";"Urbanismo";"2015-09-18 07:10:20.365641+00";"organizacion";"Derivas y Rutas Urbanas";"Cultura Libre";"Iniciativa Ciudadana";
"CIVICS";555;"La Cancha de Lavapiés";;"Colectivo que funciona dentro de C.S.A LA TABACALERA. Somos un grupo de artistas, productores, cantantes y dj´s que nos organizamos para promover la cultura urbana en sus diversas expresiones a través de eventos musicales y programas de formación musical, idiomas, pintura, danza, etc. Para que estos conocimientos sean usados como herramienta de integración ayudando a los jóvenes en riesgo de exclusión social de forma gratuita";;"La Cancha de Lavapiés";"C/ Embajadores, 53";;;;"Madrid";"40.4061868";"-3.7031068";"lacanchadelavapies@gmail.com";647249275;;"www.facebook.com/Lacancha Lavapies Colectivo";"@lacanchadelavapies";;"Patrimonio";"2015-09-18 07:15:18.012333+00";"colectivo";"Derivas y Rutas Urbanas";"Educación Expandida";"Iniciativa Ciudadana";"C/ del Marqués del Riscal, 7, 28010 Madrid, España"
"CIVICS";556;"Espacio Ucrania";;"Cooperativa de espacio.";;"Espacio Ucrania";"C/ Martin de los Heros, 52";;;;"Madrid";"40.4276087";"-3.71624659999998";"hola@espacioucrania.com";917526949;"http://www.espacioucrania.com/";"https://www.facebook.com/EspacioUcrania";"@EspacioUcrania";"Empresa Social";"Economía";"2015-09-18 07:31:39.40536+00";"organizacion";"Encuentro Diálogo y Corresponsabilidad";"Ecología Urbana y Consumo";"Iniciativa Ciudadana";
"CIVICS";558;"GreenDrinks Madrid";;"Este foro se ha consolidado en los últimos años como un punto de encuentro para estudiantes, recién egresados y profesionales consolidados del sector ambiental. Su principal seña de identidad es su carácter informal, reservando siempre más tiempo para el Networking que para la presentaciones formales. Se realiza el primer jueves de cada mes a partir de las 20:30 h.";;;"C/ General Ramírez de Madrid, 14";;;;"Madrid";"40.455049";"-3.69772179999995";"roberto.ruiz.robles@cienciasambientales.org.es";;"http://www.greendrinksmad.org/";"https://www.facebook.com/GreenDrinksMadrid";"@GreenDrinksMAD";"Empresa Social";"Ecología";"2015-09-18 08:42:40.497496+00";"organizacion";"Otros";"Ecología Urbana y Consumo";"Administración Pública";
"CIVICS";559;"AVV La Fraternidad de Los Cármenes ";;"Asociación Vecinal que promueve el desarrollo asociativo y cultural en el barrio de Caño Roto. Realiza diversas tareas como son el buscar un barrio más habitable. Desarrolla actividades culturales en su local: alfabetización de mayores, memoria, informática, bailes, gimnasia, apoyo escolar, actividades para niños, etc. Tambien acoge al grupo de scout Heptagono y al Club Deportivo Sporting Laguna. En su local se desarrollan actividades de Planes de Barrio y de Mediacion Vecinal. ";;;"C/ Escalonilla, 19";;;;"Madrid";"40.3961262";"-3.74132059999999";"avvlafraternidad@gmail.com";914284353;"www.avvlafraternidad.org";"https://www.facebook.com/avvlafraternidad";"@AVLaFraternidad";"Espacio Vecinal";"Cultura";"2015-09-18 10:03:57.344916+00";"organizacion";"Centro Social";"Otra";"Organizaciones y Asociaciones de Vecinos";"C/ Matilde Hernández, 34, 28019 Madrid, España"
"CIVICS";561;"Asociación Jubilares";;"Asociación sin ánimo de lucro. Trabajamos en la creación y mejora de entornos para envejecer con autonomía e incluid@s en la comunidad. Faciltamos la creación de comunidades autogestionadas de personas mayores que diseñan con métodos participativos el lugar donde quieren vivir (= jubilares, conocidos como ""senior cohousing""). Ciudades Amigables. Planificación Integral y Centrada en la Persona.";;;"C/ Zurbano, 58 - 1º C";;;;"Madrid";"40.434669";"-3.69308509999996";"info@jubilares.es";913087038;"www.jubilares.es";"www.facebook/jubilares";"@jubilares";"Asociaciones de Vecinos";"Urbanismo";"2015-09-18 10:26:38.568389+00";"organizacion";"Centro Social";"Otra";"Organizaciones y Asociaciones de Vecinos";
"CIVICS";562;"Madricicleta";;"Una ciudad más amigable. A pié, en bici, en patinete, en transporte público. Iniciativa sin ánimo de lucro.";;;"Avda. Valdelasfuentes, 32";;;;"San Sebastián de los Reyes";"40.552648";"-3.63575939999998";"info@madricicleta.com";;"http://www.madricicleta.com";"www.facebook.com/madricicleta";"@madricicleta";"Urbanismo";;"2015-09-18 11:24:57.372761+00";"colectivo";"Centro Social";"Política y Gobernanza";"Iniciativa Ciudadana";
"CIVICS";564;"Vivero de Iniciativas Ciudadanas";"VIC";"[VIC] Vivero de Iniciativas Ciudadanas es una plataforma  abierta, colaborativa  y orientada a promover, difundir, analizar y apoyar iniciativas y procesos críticos con ánimo propositivo de la ciudadanía, con especial incidencia en la transferencias al territorio, la ciudad y el espacio público. Observamos y cartografiamos iniciativas ciudadanas que suponen “otra forma de hacer las cosas”, incorporando nuevos conceptos, agentes e iniciativas en innovación social y estudiando su aplicabilidad a proyectos y propuestas (estudios de caso) en el ámbito de la arquitectura y lo urbano. Proponemos proyectos y estrategias o “modos de hacer” que sirvan de puente entre los diversos agentes que formamos hoy la sociedad red que estamos construyendo. Compartimos el conocimiento colectivo en diversos talleres, encuentros y foros abiertos generando vínculos actualizados en la sociedad, escuchando, estudiando y proponiendo rutas sobre situaciones concretas, que permiten reunir teoría y práctica.";;;"C/ Duque de Fernán Nuñez, 2";;;;"Madrid";"40.4117425";"-3.69835450000005";"viverodeiniciativasciudadanas@gmail.com";;"www.viveroiniciativasciudadanas.net";;"@desdevic";"Asociaciones de Vecinos";"Urbanismo";"2015-09-18 11:40:21.994482+00";"organizacion";"Centro Social";"Política y Gobernanza";"Iniciativa Ciudadana";
"CIVICS";568;"AVV Manoteras";;"Su objetivo es defender los intereses de los vecinos y vecinas del barrio. Promueve desde la celebración de las fiestas del barrio hasta diversos talleres de pintura, francés, alemán, defensa personal o pilates. También apoya el comercio justo (en su local se pueden adquirir productos) y en junio de 2015 ha inaugurado un huerto urbano en Manoteras.";;;"C/ Cuevas de Almanzora, 46";;;;"Madrid";"40.478224";"-3.65782560000002";"manoteras@avmanoteras.org";;"www.avmanoteras.org";;;"Deporte";;"2015-09-18 12:32:07.165668+00";"organizacion";"Centro Social";"Apoyo Mutuo y Cuidados";"Iniciativa Ciudadana";"C/ Mieres, 15, 28037 Madrid, España"
"CIVICS";569;"AVV San Isidro Carabanchel Bajo";;"Esta veterana entidad promovió la remodelación del barrio, un proceso gracias al cual multitud de familias que vivían en infraviviendas fueron realojadas en viviendas dignas.   ";;;"Plaza de Roger de Flor, 12";;;;"Madrid";"40.39414";"-3.73188000000005";"avcarabanchelbajo@hotmail.com";;;;;"Federación";"Ecología";"2015-09-18 12:38:38.785481+00";"organizacion";"Centro Social";"Cultura Libre";"Iniciativa Ciudadana";
"CIVICS";573;"AVV San Roque de Corralejos ";;"Asociación vecinal radicada en Corralejos, en el casco histórico de Barajas, que trabaja por la mejora de las condiciones de vida del barrio. ";;;"C/ Benisoda, 30";;;;"Madrid";"40.4664825";"-3.58746180000003";"av.sanroque30@hotmail.com";;;;;"Empresa Social";"Ecología";"2015-09-18 12:46:13.421805+00";"organizacion";"Centro Social";"Apoyo Mutuo y Cuidados";"Iniciativa Ciudadana";"C/ Milagrosa, 28011 Madrid, España"
"CIVICS";575;"AVV La Merced del Bº de Quintana";;"La asociación vecinal del barrio de Quintana organiza charlas informativas y talleres, colabora en las fiestas del barrio, trabaja por la mejora de la movilidad, de las zonas verdes, la convivencia, por la promoción del pequeño comercio, entre otras cosas";;;"C/ Elfo, 132";;;;"Madrid";"40.4364817";"-3.64410699999996";"quintana.av@gmail.com";;;"https://www.facebook.com/Asociaci%C3%B3n-Vecinal-de-Quintana-272346972882768";;"Espacio Vecinal";"Política";"2015-09-18 13:03:58.15878+00";"organizacion";"Centro Social";"Política y Gobernanza";"Iniciativa Ciudadana";"C/ Montamarta, 7, 28037 Madrid, España"
"CIVICS";579;"AVV General Ricardos";;"Asociación ubicada en el barrio de San Isidro. Mantuvo una intensa lucha contra la construcción del crematorio-tanatorio del Parque de San Isidro, luchando por la conservación de las zonas verdes del barrio. Actualmente continúa defendiendo los derechos de sus vecinos/as y promueve actividades como una Ludoteca.";;;"C/ Toboso, 52 - Bajo";;;;"Madrid";"40.3931193";"-3.72985589999996";"avgricardos@portubarrrio.org";;"http://avgricardos.blogspot.com.es/";;;"Asociaciones de Vecinos";"Urbanismo";"2015-09-18 20:46:36.529317+00";"organizacion";"Centro Social";"Política y Gobernanza";"Iniciativa Ciudadana";
"CIVICS";580;"AVV San Chinarro";;"La Asociación nació en el año 2007 con la finalidad de crear un foro de defensa de los intereses de los vecinos, fomentar la participación ciudadana y el asociacionismo como herramienta para mejorar el barrio. Trabajan por conseguir las dotaciones que Sanchinarro aún no tiene y a las que tienen derecho, como un Polideportivo o una Biblioteca pública en el Centro Cultural, entre otras muchas.";;;"C/ Niceto Alcalá Zamora, 81";;;;"Madrid";"40.498135";"-3.65563769999994";"info@avsanchinarro.org";;"www.avsanchinarro.org";"https://www.facebook.com/avsanchinarro";;"Asociaciones de Vecinos";"Urbanismo";"2015-09-19 09:56:32.573411+00";"organizacion";"Otros";"Cultura Libre";"Iniciativa Ciudadana";
"CIVICS";581;"AVV La Chimenea ";;"Fue fundada en 1978 por vecinos del barrio preocupados por los problemas que acontecían en una de las zonas más deprimidas de Madrid. Nació a raíz del proyecto de construcción de 524 viviendas en el único espacio libre que quedaba en el barrio y con la finalidad de conseguir un parque en dicho lugar. En la actualidad mantiene proyectos educativos, de apoyo a la tercera edad, pero es además una Escuela de Fútbol con más de 350 jugadores divididos en 17 equipos. ";;;"C/ Hermeregildo Bielsa, s/n";;;;"Madrid";"40.3891846";"-3.70163170000001";"informacion@avlachimenea.com";;"www.avlachimenea.com";;;"Centro Social";;"2015-09-19 13:11:01.270105+00";"colectivo";"Otros";"Apoyo Mutuo y Cuidados";"Empresa Social";"C/ Montseny, 35, 28038 Madrid, España"
"CIVICS";582;"AVV La Popular - Barrio de Bilbao";;"Vecinas y vecinos del barrio de Bilbao colaboran para mejorar las condiciones de vida de la comunidad y defender los servicios públicos (sanidad, educación...). ";;;"C/ Marcelino Roa Vázquez, 18";;;;"Madrid";"40.4273664";"-3.64328369999998";"avvlapopular@hotmail.com";;;;;"Asociaciones de Vecinos";"Urbanismo";"2015-09-21 10:48:01.743248+00";"organizacion";"Otros";"Política y Gobernanza";"Asambleas Populares, Mareas, Plataformas y Grupos de Trabajo";
"CIVICS";583;"Asoc. Cultural Deportiva Hispano Ecuatoriana de San Isidro";;"Asociación deportiva formada por vecinos de origen ecuatoriano constituida en origen para gestionar unas canchas de ecuavoley. ";;;"C/ Tercio, 7";;;;"Madrid";"40.3933167";"-3.72783430000004";"ahesanisidro@hotmail.com";;;;;"Asociaciones de Vecinos";"Urbanismo";"2015-09-23 07:59:01.886341+00";"organizacion";"Encuentro Diálogo y Corresponsabilidad";"Cultura Libre";"Organizaciones y Asociaciones de Vecinos";
"CIVICS";585;"AVV UVA de Hortaleza";;"Esta asociación se ubica en el barrio de la UVA de Hortaleza, el último barrio de infraviviendas de la capital que cumplió en 2014 cincuenta años. Convertida en un símbolo de la lucha por la vivienda digna, en este tiempo, continúan luchando contra la desidia de la administración que  mantiene en casas prefabricadas (construidas para un periodo de entre 5 y 15 años) a decenas de familias cinco décadas después.";;;"C/ Abarzuza, 31";;;;"Madrid";"40.476181";"-3.64964659999998";"av.uvahortaleza@gmail.com";;;"https://www.facebook.com/Asociacion-de-vecinos-uva-de-Hortaleza-112069462154833/";;"Asociaciones de Vecinos";"Urbanismo";"2015-09-23 08:49:42.305654+00";"organizacion";"Otros";"Urbanismo y Patrimonio";"Asambleas Populares, Mareas, Plataformas y Grupos de Trabajo";
"CIVICS";586;"Parque Sí Chamberí";;"Comunidad de vecinos de Chamberí cuyo objetivo es que todo el espacio del tercer depósito del Canal de Isabel II se convierta en un parque; mediante manifestaciones y mesas de diálogo se pretende llegar a tal fin. ";;;"Avda. de Islas Filipinas, 42";;;;"Madrid";"40.4419214";"-3.70452920000002";;;"http://www.parquesienchamberi.org";;;"Apoyo Mutuo";"Social";"2015-09-23 09:48:03.750095+00";"colectivo";"Medios de Comunicación Vecinales";"Otra";"Organizaciones y Asociaciones de Vecinos";
"CIVICS";587;"AVV Palomeras Bajas";;"Primera asociación de vecinos que se crea en Madrid en el año 1968. Está situada en el barrio de Palomeras Bajas y ha sido referente en la lucha por el derecho a una vivienda digna de sus vecinos/as. Actualmente trabaja por la mejora y acondicionamiento del Museo de las Esculturas que hay en el barrio mientras mantiene interesantes actividades como un taller de relajación o yoga, talleres de lectura, estimulación en el hábito de estudio e iniciación a la informática.";;;"Travesía Felipe de Diego, 31";;;;"Madrid";"40.3786677";"-3.66004459999999";"avpalomerasbajas@yahoo.es";;"http://www.avpalomerasbajas.org/";;;"Apoyo Mutuo";"Mayores";"2015-09-23 10:03:11.166603+00";"organizacion";"Digital";"Urbanismo y Patrimonio";"Iniciativa Ciudadana";"C/ Olvido, 62, 28026 Madrid, España"
"CIVICS";589;"AVV Barrio de Justicia";;"Más zonas verdes y espacios públicos de encuentro, una movilidad más sostenible y menos dependiente del vehículo privado, más equipamientos sanitarios, educativos, culturales y deportivos... son algunas de las reivindicaciones de la asociación del Barrio de Justicia.   ";;;"C/ San Cosme y San Damián, 24 - 1º Exterior Dcha";;"C/ San Cosme y San Damián, 24";;"Madrid";;;;;;;;"Asociaciones de Vecinos";"Urbanismo";"2015-09-23 10:08:26.354973+00";"organizacion";"Trabajo Colaborativo";"Educación Expandida";"Empresa Social/Startup";
"CIVICS";590;"AVV Nueva Elipa";;"Asociación referente del movimiento vecinal en La Elipa que trabaja por mejorar las condiciones de vida de sus vecinos/as. Actualmente mantiene una intensa actividad y lucha por el uso público de las instalaciones deportivas del barrio y por un nuevo centro de salud. Pero además mantiene una intensa actividad apoyando las fiestas del barrio o la cabalgata popular, entre otras.";;;"C/ Santa Felicidad, 29";;;;"Madrid";"40.42467";"-3.64995999999996";"nuevaelipa@gmail.com";;"http://nuevaelipa.blogspot.com.es/";;;"Asociación Cultural";;"2015-09-23 14:16:53.360028+00";"organizacion";"Encuentro Diálogo y Corresponsabilidad";"Ecología Urbana y Consumo";"Empresa Social/Startup";
"CIVICS";594;"AVV Carabanchel Alto ";;"Esta asociación vecinal tiene en su haber un montón de conquistas: la construcción del parque de Las Cruces, del Centro Cultural García Lorca, de los polideportivos del barrio, del centro juvenil, el freno de la implantación de parquímetros y de la construcción de la M-45... pero continúa trabajando por la ampliación del parque Manolito Gafotas o por la creación de un centro para la paz y la memoria y de equipamientos públicos en los terrenos de la antigua cárcel de Carabanchel. ";;;"C/ Gómez de Arteche, 15";;;;"Madrid";"40.3695637";"-3.75492600000007";"carabanchelalto@aavvmadrid.org";;"www.carabanchelalto.org";;;"Asociaciones de Vecinos";"Urbanismo";"2015-09-23 14:30:04.641774+00";"organizacion";"Trabajo Colaborativo";"Política y Gobernanza";"Iniciativa Ciudadana";
"CIVICS";596;"AVV Villa Rosa";;"1972 es el año en que los vecinos del barrio de Villa Rosa consideran necesario organizarse para decir basta a las muchas tropelías urbanísticas que se habían consumado en su barrio con la complicidad de las autoridades municipales debido a la corrupción existente y fundamentalmente a la ausencia total de control democrático. Durante tres décadas esta asociación se mantiene en la defensa de la Participación, la Solidaridad y la Igualdad de oportunidades.";;;"C/ El Provencio, 37";;;;"Madrid";"40.4640197";"-3.62949609999998";"asociacion@av-villarosa.org";;"www.av-villarosa.org";;;"Movilidad";;"2015-09-23 14:35:44.908127+00";"colectivo";"Otros";"Ecología Urbana y Consumo";"Empresa Social/Startup";"C/ del Arroyo del Olivar, 28018 Madrid, España"
"CIVICS";597;"AVV Pozo del Tío Raimundo";;"Emblemático referente de la lucha por la vivienda digna, que transformó un barrio de chabolas en uno de los barrios populares más emblemáticos de Madrid. Ahora su lucha es por una educación de calidad, unas instalaciones deportivas adecuadas y gratuitas para los jóvenes del Pozo, unas Calles limpias o que la administración no deje en el olvido a quienes nunca dejaron de luchar. Además, promueve un comedor social que ayuda a afrontar la crisis a los más perjudicados por la crisis.";;"AVV Pozo del Tio Raimundo";"Avda. de las Glorietas, 19-21";;;;"Madrid";"40.3735937";"-3.66023770000004";"emeaavvpozo@hotmail.com";;"https://vecinosdelpozo.wordpress.com/";;;"Asociaciones de Vecinos";"Urbanismo";"2015-09-26 07:23:50.544987+00";"organizacion";"Escuela Popular";"Arte Urbano";"Iniciativa Ciudadana";
"CIVICS";601;"AVV Arroyo del Fresno";;"Asociación que defiende los intereses generales de los vecinos de Arroyo del Fresno. Fue fundada en 1997 cuando unos pocos vecinos residentes en el barrio, con vocación de servicio por el mismo, decidieron unirse. Algunos de sus objetivos prioritarios son conseguir un barrio más seguro mediante la ralentización del tráfico rodado, la construcción de nuevas instalaciones deportivas en los terrenos disponibles de La Masó o de una biblioteca, entre otros.";;;"C/ del Mirador de la Reina, 53";;;;"Madrid";"40.4908501";"-3.72529770000006";"infoavaf@asoavaf.org";;"www.asoavaf.org";;;;"Cultura";"2015-09-26 14:34:28.358315+00";"organizacion";"Escuela Popular";"Deporte";"Iniciativa Ciudadana";"C/ Pedro Unanue, 16, 28045 Madrid, España"
"CIVICS";603;"AVV Vírgen del Cortijo";;"Desde 1978 vienen defendiendo frente a la administración los derechos cívicos de l@s vecin@s y reivindicando las mejoras de infraestructuras y servicios públicos que creen que son necesarias en el barrio. Gracias a su esfuerzo se ha conseguido la mejora del acceso por carretera, que la línea de autobuses nocturnos (búho) llegue hasta el vecindario, o la construcción de la parada de metro ligero de Virgen del Cortijo (que no estaba prevista en el trazado inicial de la línea).";;;"C/ Oña, 21A";;;;"Madrid";"40.4890663";"-3.66720669999995";"avvvcortijo@telefonica.net";;"http://www.virgencortijo.org/";;;"Espacio Vecinal";"Derechos Humanos";"2015-09-26 16:50:18.197423+00";"organizacion";"Escuela Popular";"Educación Expandida";"Iniciativa Ciudadana";"C/ Peironcely, 2, 28053 Madrid, España"
"CIVICS";604;"AVV Casco Antiguo de Carabanchel Bajo ";;"Asociación creada en los 70 para defender los derechos del vecindario y reclamar equipamientos públicos educativos, culturales, deportivos, sanitarios o el uso civil del hospital Gómez Ulla... ante las administraciones. Ofrece talleres y cuenta con varios equipos de fútbol. ";;;"C/ Conde Eleta, 3";;;;"Madrid";"40.3815859";"-3.74528889999999";"cascoantiguovecinos@gmail.com";;"www.aavvcarabanchelbajo.hol.es/";;;"Medios de Comunicación";"Cultura";"2015-09-27 11:28:51.825018+00";"organizacion";"Escuela Popular";"Educación Expandida";"Iniciativa Ciudadana";"Madrid, España"
"CIVICS";605;"AVV Centro-La Latina";"AVECLA";"Constituida  en 2007, han desarrollado campañas por la denuncia y sensibilización del estado en que se encuentra el casco histórico de la ciudad. También luchan por la efectiva implantación del Acceso Área de Prioridad Residencial en un barrio que ve como se priorizan los derechos de los comercios al por mayor con horarios de carga y descarga permanentes.";;;"Plaza de la Cebada, 7";;;;"Madrid";"40.4114731";"-3.70964939999999";"info@avecla.es";;"http://www.avecla.es/";;;"Asociaciones de Vecinos";"Urbanismo";"2015-09-29 18:06:25.599846+00";"organizacion";"Encuentro Diálogo y Corresponsabilidad";"Cultura Libre";"Organizaciones y Asociaciones de Vecinos";
"CIVICS";606;"AVV Aluche";"AVA";"Hace treinta años luchaban por la democracia, por viviendas dignas... Hoy en día lo hacen para conseguir un hospital para el distrito, lograr el enterramiento de todos los cables de alta tensión, lograr la apertura de una nueva estación de cercanías, el enterramiento de las vías... Además, AVA pretende ser un punto de encuentro de los vecinos del barrio y para ello cuenta con múltiples actividades promovidas por los propios vecinos.";;;"C/ Quero, 69";;;;"Madrid";"40.3900551";"-3.76068929999997";"ava@avaluche.com";;"www.avaluche.com";;;"Diversidad Funcional";;"2015-09-30 10:11:36.939487+00";"organizacion";"Centro Social";"Apoyo Mutuo y Cuidados";"Iniciativa Ciudadana";
"CIVICS";608;"Arte Vecinal";;"Colectivo que pretende establecer relaciones de colaboración entre asociaciones, organizaciones y personas, generando una serie de interacciones sociales que dan lugar a acciones artísticas colectivas. Su actividad tiene dos líneas de actuación: una esporádica, aprovechando las convocatorias a vecinos del barrio con motivo de reivindicaciones sociales o encuentros lúdicos, y otra permanente con talleres de continuidad semanal.";;;"C/ Diligencia, 19 ";;;;"Madrid";"40.383285";"-3.65354560000003";"artevecinal@yahoo.es";;"https://artevecinal.wordpress.com/";"https://www.facebook.com/ArteVecinal";;"Espacio Vecinal";"Cultura";"2015-10-13 10:32:18.06332+00";"organizacion";"Trabajo Colaborativo";"Economía Colaborativa";"Empresa Social";"C/ Pradillo, 12, 28002 Madrid, España"
"CIVICS";610;"AVV La Mancha";;"Asociación situada en el poblado dirigido de Almendrales. Tuvo un papel fundamental en el proceso de remodelación del barrio. Actualmente denuncia el estado de degradación del barrio y lucha por la limpieza y conservación del espacio. Promueve diversas actividades como clases de apoyo, baile y kárate.";;;"Plaza Campo de Criptana, s/n";;;;"Madrid";"40.3821161";"-3.7031169";"avvlamancha@gmail.com";;;;;"Asociaciones de Vecinos";"Urbanismo";"2015-10-13 10:42:20.608235+00";"organizacion";"Centro Social";"Política y Gobernanza";"Iniciativa Ciudadana";
"CIVICS";611;"AVV de Begoña";;"Frente a las imágenes que estigmatizan el barrio, luchan para impedir el cierre de los colegios públicos, participan en el Plan de Urbanismo Integral del barrio o en la construcción del  huerto comunitario “Enrique Granados”.";;;"C/ San Dacio, 10";;;;"Madrid";"40.4849911";"-3.68833070000005";"vecinosdebegona@gmail.com";;"http://asociacionvecinosbegona.blogspot.com.es/";;;"Asociaciones de Vecinos";"Urbanismo";"2015-10-13 10:45:24.946176+00";"organizacion";"Centro Social";"Política y Gobernanza";"Organizaciones y Asociaciones de Vecinos";
"CIVICS";612;"AVV Chueca";;"Agrupación vecinal que defiende un Plan de Acción para la Revitalización  del Ámbito Residencial de Chueca que incluye, entre otras medidas, la reordenación del tráfico rodado y ampliar el espacio para peatones, la promoción de la rehabilitación y la mejora de la limpieza urbana, el cumplimiento de la protección acústica integral del ámbito y la transformación de usos comerciales de ocio nocturno en Calles saturadas por esta actividad a usos comerciales diurnos no contaminantes.";;;"C/ Augusto Figueroa, 24";;;;"Madrid";"40.4220473";"-3.69755380000004";"avchueca@gmail.com";;"http://www.avchueca.com";"https://www.facebook.com/avchueca";"https://twitter.com/avchueca";"Centro Social";;"2015-10-13 10:57:08.912281+00";"colectivo";"Trabajo Colaborativo";"Ecología Urbana y Consumo";"Iniciativa Ciudadana";"C/ Puerto del Milagro, 2, 28018 Madrid, España"
"CIVICS";613;"AVV Puerto Chico";;"En 1967 los ciudadanos que habían adquirido una vivienda en el barrio de Puerto Chico en Aluche, sufrieron el aumento del precio de los pisos en una tercera parte del precio contratado del piso. Por ello, un grupo numeroso de futuros propietarios se agruparon para llevar a cabo un pleito contra los responsables. La Asociación de vecinos marcó un hito por el hecho de que un grupo de trabajadores se atrevió a enfrentarse con un Ministerio y unas Inmobiliarias que se habían confabulado para estafar";;;"C/ Camarena, 196";;;;"Madrid";"40.389348";"-3.75577250000003";"avpuertochico@avpuertochico.es";;"www.avpuertochico.es ";;;"Medios de Comunicación";"Educación";"2015-10-13 11:00:23.096009+00";"organizacion";"Escuela Popular";"Cultura Libre";"Organizaciones y Asociaciones de Vecinos";
"CIVICS";614;"AVV Puente de Vallecas";;"Mejorar las condiciones de vida de los vallecanos, barrios de San Diego y Norte de Numancia. Actualmente la asociación reivindica un Plan Integral para Puente de Vallecas, que incluye un Plan de Recuperación de Solares Abandonados; la rehabilitación de los parques infantiles; un Plan de Actuación Especial en los Mercados Municipales; la creación de dos Viveros de Empresas; la introducción de un Plan Contra el Absentismo Escolar, o la puesta en marcha de una nueva línea de microbús.";;;"Sierra Carbonera, 32";;;;"Madrid";"40.3918868";"-3.66430809999997";"vecinospuenteVK@gmail.com";;"http://vecinospuentevk.blogspot.com.es/";"https://www.facebook.com/AVPVk?fref=ts";"https://twitter.com/avptevallecas";"Empresa Social";"Ecología";"2015-10-13 11:02:32.727598+00";"organizacion";"Otros";"Política y Gobernanza";"Administración Pública";"C/ Puerto del Milagro, 8, 28018 Madrid, España"
"CIVICS";616;"AVV Colonia Diego Velázquez";;"Una asociación con más de 45 años de antiguedad, que empezó como agrupación de padres de familia, hasta nuestros días, con mas de 1.200 socios propietarios. La asociación ofrece al vecindario un punto de encuentro en el que pueden participar en actividades formativas y lúdicas, un espacio para crear comunidad. ";;;"Plaza de las Meninas, 2";;;;"Madrid";"40.3777803";"-3.73198980000006";"coloniavelazquez@hotmail.es";;"http://aavvmadrid.org/index.php/blog/coloniavelazquez";;;"Asociaciones de Vecinos";"Urbanismo";"2015-10-13 11:03:29.591353+00";"organizacion";"Centro Social";"Educación Expandida";"Organizaciones y Asociaciones de Vecinos";
"CIVICS";617;"AVV La Flor";;"La AV La Flor inició su andadura en los años 70 en la lucha contra la especulación urbanística de José Banús. Han trabajado por la mejora de las condiciones de vida en el barrio del Pilar, denunciando las obras de remodelación de la M-30 o luchando contra la instalación de parquímetros. Actualmente, está presente en la Coordinadora por lo público de Fuencarral y promueve diversas actividades sociales y culturales tales como el Huerto Comunitario del Barrio del Pilar.";;"La Piluka";"Plaza de Corcubión, 16";;;;"Madrid";"40.4767468";"-3.70735530000002";"avlaflor@avlaflor.org";;"www.avlaflor.org";;;"Asamblea";;"2015-10-13 11:08:03.085197+00";"colectivo";"Infraestructuras y/o Intervenciones Urbanas";"Derechos e Igualdad";"Iniciativa Ciudadana";"C/ Ramón Pérez de Ayala, 106, 28038 Madrid, España"
"CIVICS";619;"AVV Unión Casa de Campo Batán";;"Tiene su origen en la Asociación General de Copropietarios de las Viviendas situadas en el KM. 4.250 de la Carretera de Extremadura. Una de las reivindicaciones de la Asociación es la toma de medidas con respecto a la Carretera de Extremadura A-5. Ésta divide al barrio en dos además de provocar ruido, contaminación y peligro para los vecinos del barrio desde el año 1968. ";;;"C/ Villamanín, 39";;;;"Madrid";"40.40614";"-3.75311999999997";"avbatan@gmail.com";;"http://avcasadecampobatan.blogspot.com.es/";;;"Asociaciones de Vecinos";"Urbanismo";"2015-10-13 11:10:12.208305+00";"organizacion";"Centro Social";"Otra";"Empresa Social";
"CIVICS";620;"AVV La Corrala";;"La Corrala es una de las asociaciones más antiguas del barrio de Lavapiés, impulsora de un proceso de rehabilitación de viviendas aún inacabado, responsable de la salvaguarda, entre otros edificios históricos, del palacio de la Duquesa Sueca o de la corrala de la C/ Carlos Arniches que acoge el Museo de Artes y Tradiciones Populares y de la racionalización del tráfico en el barrio. ";;;"C/ Lavapiés, 38";;;;"Madrid";"40.4099306";"-3.70254840000007";"info@lavapiesdiaynoche.org";;"http://www.lavapiesdiaynoche.info/";"https://www.facebook.com/ondalavapies?fref=nf";"https://twitter.com/AVVLaCorrala";"Medios de Comunicación";"Política";"2015-10-13 11:10:27.935286+00";"organizacion";"Medios de Comunicación Vecinales";"Cultura Libre";"Iniciativa Ciudadana";"C/ Río Orinoco, 7, 28018 Madrid, España"
"CIVICS";621;"AVV El Parque del Barrio de Comillas ";;"Vecinas y vecinos del barrio de Comillas iniciaron en 1979 esta asociación como ""instrumento de consulta, información, debate y propuestas participativas"". Organiza talleres y cuenta con un grupo de mujeres, un grupo de autoconsumo y una escuela deportiva con tiene equipos en todas las categorías de fútbol sala y muchas de fútbol 7 y de otras modalidades deportivas.  ";;;"C/ Inmaculada Concepción, 41";;;;"Madrid";"40.3912094";"-3.71243340000001";"correo@avcomillas.org";;;"https://www.facebook.com/dinamizacion.comillas";;;;"2015-10-13 11:10:52.210972+00";"colectivo";"Otros";"Ecología Urbana y Consumo";"Organizaciones y Asociaciones de Vecinos";
"CIVICS";622;"AVV La Unión de Fuencarral";;"Nació en 1995 con el objetivo de presionar al IVIMA, para lograr la rápida finalización del proceso de Remodelación de los poblados A y B de Fuencarral. Persiguiendo una vivienda digna dentro de un barrio habitable.  Es un lugar de encuentro, donde escuchan, donde intercambian experiencias, realizan actividades…";;;"C/ Villacastín, 10";;;;"Madrid";"40.4926788";"-3.6928894";"avlaunion@yahoo.es";;"https://avlaunionfuencarral.org";;;"Empresa Social";"Educación";"2015-10-13 11:12:34.57891+00";"organizacion";"Encuentro Diálogo y Corresponsabilidad";"Apoyo Mutuo y Cuidados";"Iniciativa Ciudadana";
"CIVICS";623;"Asoc. Vecinos y Consumidores de Las Águilas";;"La Asociación trata de construir un barrio mejor para todos; para ello, además de intentar satisfacer a través de toda una serie de actividades culturales y servicios de asesoría, las inquietudes de sus vecinos, mantienen algunas reivindicaciones entre las que se encuentran el acondicionamiento de la carretera de La Fortuna, el mejoramiento del transporte y comunicación del barrio o el disponer de un hospital de referencia cercano, entre otras.";;;"C/ General Romero Basart, 125";;;;"Madrid";"40.37792";"-3.76810999999998";"avaguilas@hotmail.com";;"www.lasaguilasav.org";;;"Deporte";;"2015-10-13 11:13:50.113906+00";"colectivo";"Medios de Comunicación Vecinales";"Cultura Libre";"Organizaciones y Asociaciones de Vecinos";"C/ Rosa Jardón, 12, 28016 Madrid, España"
"CIVICS";625;"Liga de Fútbol Popular de Vallekas";"LFP";"Colectivo que toma la iniciativa crear una liga de fútbol popular participativa y reivindicativa, reclamando unos equipamientos públicos accesibles y de calidad.";;;"Travesía de las Palomeras, 7";;;;"Madrid";"40.3900322";"-3.67072029999997";"lfpvallekas@gmail.com";;"http://ligadefutbolpopularvk.jimdo.com/";;"@lfpvallekas";;"Cultura";"2015-10-13 11:15:45.977634+00";"colectivo";"Centro Social";"Apoyo Mutuo y Cuidados";"Iniciativa Ciudadana";"Madrid, España"
"CIVICS";626;"AVV Las Cavas y Costanillas";;"Punto de encuentro de los asociados, vecinos y demás personas interesadas en hacer del Centro Histórico de Madrid un lugar habitable, limpio, no ruidoso y seguro. Pretendemos luchar contra el deterioro que está sufriendo el entorno de nuestro barrio en los últimos años, producido por la invasión de gente incivilizada y de negocios de hostelería sin ética, que no respetan ni el barrio ni a sus vecinos. Y todo ello con la complicidad del Ayuntamiento de Madrid que ignora las abundantes quejas.";;;"C/ Cava Baja, 38";;;;"Madrid";"40.4119956";"-3.71016480000003";"asociacionvecinoscavas@gmail.com";;"http://asociacionvecinoscavas.wordpress.com";;"https://twitter.com/AVCavas";"Asociaciones de Vecinos";"Urbanismo";"2015-10-13 11:16:11.827725+00";"organizacion";"Trabajo Colaborativo";"Educación Expandida";"Empresa Social";
"CIVICS";627;"AVV Madrid Sur";;"Con más de veinte años de historia la Asociación Vecinal camina paralela a la construcción del barrio que le da nombre. Protagonistas de la lucha por los equipamientos básicos del barrio: reivindicación de los colegios e instituto, transporte o reapertura del Centro Cultural Paco Rabal, entre otras. Actualmente demanda un mejor mantenimiento y limpieza de este barrio de Vallecas. Entre las actividades que realizan se encuentran gimnasia de mantenimiento, idiomas, talleres de historia del arte...";;;"C/ Javier de Miguel, 92";;;;"Madrid";"40.3853782";"-3.65645100000006";"avms@avmadrid-sur.org";;"http://www.avmadrid-sur.org/";;;"Asociaciones de Vecinos";"Urbanismo";"2015-10-13 11:16:38.856536+00";"organizacion";"Centro Social";"Cultura Libre";"Iniciativa Ciudadana";
"CIVICS";628;"AVV Manzanares Casa de Campo";;"Su primer reglamento data de 1949. Se trata, por tanto, de una de las asociaciones de vecinos más antiguas de Madrid. Actualmente es la promotora del huerto urbano “La Bombilla” y ha apoyado el desarrollo de diversas actividades sociales o culturales como las “Miniolimpiadas” o las fiestas populares de San Antonio. También trabaja por mejorar las condiciones de vida de sus vecinos/as y mantiene una intensa lucha por el transporte y acceso al barrio.";;;"C/ de la Bahía, 39 ";;;;"Madrid";"40.4298139";"-3.7361707";"av.manzanares@gmail.com";;"http://avmanzanares.org";;;"Asociaciones de Vecinos";"Urbanismo";"2015-10-13 11:17:17.938692+00";"organizacion";"Centro Social";"Apoyo Mutuo y Cuidados";"Asambleas Populares, Mareas, Plataformas y Grupos de Trabajo";
"CIVICS";630;"AVV Guernica Pan Bendito";;"Asociación de Vecinos que trabaja por la mejora de la calidad de vida de los vecinos y vecinas de Pan Bendito. Otorgan gran importancia a la representación institucional, participan en las Reuniones de Consejos Territoriales, de Seguridad, con la Junta Municipal, Seguimiento de los planes especiales de Inversión…";;;"Plaza de Anocibar, 6";;;;"Madrid";"40.3778181";"-3.75123170000006";"avpanbendito@gmail.com";;"http://lavozdepanbendito.blogspot.com.es/";;;"Empresa Social";"Educación";"2015-10-13 11:17:46.295646+00";"organizacion";"Centro Social";"Cultura Libre";"Iniciativa Ciudadana";
"CIVICS";631;"Asamblea Ciudadana Barrio de Universidad";"ACIBU";"Surge en la primavera de 2003 como continuación del trabajo desarrollado por los vecinos en la plataforma “espaciovecinal.org” que ha tenido como principal objetivo la lucha contra el ruido. Es una asociación de vecinos preocupados por el deterioro urbano, ambiental y convivencial de su barrio y que quieren recuperar la convivencia y la comunicación entre los vecinos, la limpieza y la belleza de un barrio histórico.";;;"C/ Palma, 16";;;;"Madrid";"40.4268268";"-3.70818099999997";"contacto@acibu.com";;"www.acibu.com";"https://www.facebook.com/ACIBU";;"Apoyo Mutuo";"Derechos Humanos";"2015-10-13 11:19:34.943951+00";"colectivo";"Infraestructuras y/o Intervenciones Urbanas";"Ecología Urbana y Consumo";"Organizaciones y Asociaciones de Vecinos";"Pasaje Santa Felicidad, 13, 28017 Madrid, España"
"CIVICS";632;"AVV Las Tablas";;"Se constituye al mismo ritmo que el nuevo barrio de Las Tablas, por el año 2005. Ha venido trabajando en previsión de las carencias de espacios públicos elementales de Salud, de Transportes, Educativos, de Seguridad etc. que para un nuevo barrio resultan fundamentales. Durante todos estos años, han ejercido la reivindicación de estos espacios y también hemos trabajado en la mejora de los que existen. ";;"El Palomar";"C/ Capiscol, 5";;;;"Madrid";"40.50448";"-3.67569000000003";"info@avlastablas.org";;"www.avlastablas.org";;;"Asociaciones de Vecinos";"Urbanismo";"2015-10-13 11:21:30.208421+00";"organizacion";"Centro Social";"Apoyo Mutuo y Cuidados";"Iniciativa Ciudadana";
"CIVICS";634;"AVV La Unión de Almendrales ";;"Ha sido un referente fundamental del proceso de remodelación de barrios junto a otras entidades del distrito. Actualmente está implicada en la lucha por la conservación de barrio y apuesta por la recuperación de las canchas de baloncesto de la C/ Evangelios. Participa activamente en ""Almendrales transformando realidades"", un espacio de encuentro con otras entidades sociales. Además se desarrollan actividades como apoyo escolar o baile. Abiertos a toda iniciativa vecinal.";;;"C/ Porta Coeli, 2";;;;"Madrid";"40.3836528";"-3.70165499999996";"avvalmendrales@hotmail.com";;"www.aavvmadrid.org";;;"Medios de Comunicación";"Cultura";"2015-10-13 11:23:06.033681+00";"organizacion";"Infraestructuras y/o Intervenciones Urbanas";"Arte Urbano";"Iniciativa Ciudadana";"C/ Santa Susana, 55, 28033 Madrid, España"
"CIVICS";635;"AVV Osa Mayor de Aravaca";;"La asociación vecinal logró una histórica sentencia de la fiscalía del Tribunal Superior de Justicia de Madrid que ordenaba el soterramiento o desvío de líneas de alta tensión que inundaban el barrio por el riesgo que comportaba para la salud por la cercanía con las viviendas.";;;"C/ Olivo,  33";;;;"Madrid";"40.4586698";"-3.78222919999996";"asovosamayoraravaca@yahoo.es";;;;;"Escuela";"Deporte";"2015-10-13 11:23:25.400299+00";"organizacion";"Mercado Social";"Ecología Urbana y Consumo";"Empresa Social/Startup";
"CIVICS";636;"AVV Pradera Tercio Terol";;"Desde 1979 la asociación defiende los derechos de los vecinos y vecinas de la Colonia Tercio Terol y Alto de San Isidro. Activa desde la construcción del barrio, ha mantenido la lucha por la mejora de la convivencia luchando contra la droga o promoviendo la integración de los nuevos vecinos/as. Desde hace años participa en la elaboración del tradicional cocido popular de las fiestas de San Isidro.";;;"C/ Tercio, 7";;;;"Madrid";"40.3933167";"-3.72783430000004";"avpraderatercioterol@gmail.com";;"https://praderatercioterol.wordpress.com";;;"Empresa Social";"Educación";"2015-10-13 11:26:09.89992+00";"organizacion";"Trabajo Colaborativo";"Educación Expandida";"Empresa Social/Startup";"C/ Sierra de Segura, 22, 28038 Madrid, España"
"CIVICS";637;"AVV Montecarmelo";;"Se desarrollan talleres de pilates, yoga, fotografía o teatro así como múltiples actividades vinculadas al huerto urbano. Pero además, lucha por la mejora de los equipamientos públicos del barrio de Montecarmelo. Reivindican, entre otras, la construcción de un Instituto de Educación Secundaria, el reinicio de las obras de ampliación del CEIP Antonio Fontán o la construcción de una biblioteca pública.";;;"Avda. Santuario de Valverde, 50";;;;"Madrid";"40.5130056";"-3.68786729999999";"avmontecarmelo@aavvmadrid.org";;;"https://www.facebook.com/aavvmontecarmelo";;"Iniciativa Ciudadana";"Cultura";"2015-10-13 11:27:32.971885+00";"colectivo";"Encuentro Diálogo y Corresponsabilidad";"Política y Gobernanza";"Iniciativa Ciudadana";"C/ Tembleque, 136, 28024 Madrid, España"
"CIVICS";639;"AVV Poetas Dehesa de la Villa";;"Punto de encuentro para todas y todos los vecinos interesados en dignificar y mejorar la calidad de vida del barrio y de la ciudad. Actualmente lucha por la creación de un Plan de  Movilidad para el barrio, la mejora del acceso al Centro de Salud, la creación de una escuela infantil o una residencia de mayores públicas, entre otras. Mantiene además diversas actividades como pilates, grupo scout, bile desalón, etc.";;;"C/ Valderrodrigo, 59";;;;"Madrid";"40.4701491";"-3.71980189999999";"avpoetas@yahoo.es";;"http://asociacionvecinospoetasdehesa.blogspot.com.es/";;;"Cultura";;"2015-10-13 11:27:54.334578+00";"organizacion";"Centro Social";"Cultura Libre";"Iniciativa Ciudadana";
"CIVICS";641;"AVV Colonia Obrera";;"Vecinas y vecinos de la Colonia Obrera, construida a principios del siglo XX, trabajan juntos en esta asociación para mejorar las condiciones de este privilegiado barrio de Madrid. Además, tienen un huerto urbano, organizan talleres de formación...  ";;;"C/ Celindas, 13";;;;"Madrid";"40.4535971";"-3.66589180000005";"avco.casinillo@gmail.com";;"https://coloniaobrera.wordpress.com/";"https://www.facebook.com/pages/Casinillo-Colonia-Obrera/319868614754797";"@ElCasinillo";"Asociaciones de Vecinos";"Urbanismo";"2015-10-13 11:29:02.637481+00";"organizacion";"Trabajo Colaborativo";"Deporte";"Iniciativa Ciudadana";
"CIVICS";642;"AVV Los Pinos Retiro Sur";;"Entidad basada en la libre asociación de vecinas y vecinos del barrio de Adelfas (Retiro) unidos por el interés de definir de forma colectiva y consensuada las necesidades y propuestas de la vecindad para mejorar las condiciones de vida del barrio en diferentes ámbitos (sanidad, urbanismo, educación, cultura, movilidad, medioambiente, participación…) a través de la democracia participativa, la presión y la negociación.";;"Centro Social Seco";"C/ Luis Peidró, 2 ";;;;"Madrid";"40.3960505";"-3.67307989999995";"vlospinosrs@gmail.com";;"http://www.avlospinosrs.org/";"https://www.facebook.com/lospinos.retirosur";"https://twitter.com/AVPinosRetiro";"Asociaciones de Vecinos";"Urbanismo";"2015-10-13 11:29:17.749584+00";"organizacion";"Otros";"Deporte";"Iniciativa Ciudadana";
"CIVICS";644;"AVV Santa Ana";;"Deportivo Asociación de Vecinos Santa Ana es un club de fútbol de la ciudad de Madrid en la Comunidad de Madrid, concretamente en el Barrio de Fuencarral. Fundado en 1974, juega en la Tercera División de España - Grupo VII. Juega en el estadio Polideportivo de Santa Ana, con una capacidad de 2000 espectadores.";;;"Hospitalet de Llobregat, 10";;;;"Madrid";"40.494884";"-3.69429309999998";"AVVsantaana@hotmail.com";;"http://www.deportivosantaana.es/";;;"Apoyo Mutuo";;"2015-10-13 11:30:28.418981+00";"organizacion";"Otros";"Deporte";"Iniciativa Ciudadana";
"CIVICS";648;"AVV Cornisa - Orcasitas";;"Surge en 1983 fruto del traslado al nuevo barrio de la Cornisa de diferentes asociaciones vecinales provenientes de los poblados de Torregrosa, Almendrales y Rafaela Ibarra. Desde 1993 gestiona el centro sociocultural Mariano Muñoz, un ensayo de modelo de autogestión (o cogestión participada) para los futuros centros culturales de la Comunidad de Madrid. El Centro social alberga una escuela de adultos, la Universidad Popular de Usera, una ""pequeteca""... El centro cuenta con una sala de teatro, jardines, una terraza y varias salas que pueden ser cedidas o alquiladas a entidades sociales y donde se imparten, entre otras, talleres de pintura, de piano, de judo, clases de castellano para inmigrantes...";;"Centro Sociocultural Mariano Muñoz";"C/ Cristo de Lepanto, 9-11";;;;"Madrid";"40.380856";"-3.70098789999997";"cornisa@cornisa.org";;"http://cornisa.org/";"https://www.facebook.com/Centro-Sociocultural-Mariano-Mu%C3%B1oz-355075544511177";;"Apoyo Mutuo";"Infancia";"2015-10-13 11:33:21.041538+00";"colectivo";"Encuentro Diálogo y Corresponsabilidad";"Apoyo Mutuo y Cuidados";"Iniciativa Ciudadana";"C/ Trafalgar, 12, 28010 Madrid, España"
"CIVICS";650;"AVV Familiar San Cristóbal";;"Desde hace años, esta asociación trabaja para mejorar las condiciones de vida del vecindario y por construir un barrio habitable y sostenible. ";;;"C/ Conde de Torralba, 19";;;;"Madrid";"40.4795444";"-3.68466960000001";"asociacion_familiar_sancristobal@hotmail.com";;;;;"Asociaciones de Vecinos";"Urbanismo";"2015-10-13 11:34:17.663039+00";"organizacion";"Medios de Comunicación Vecinales";"Movilidad Sostenible";"Iniciativa Ciudadana";
"CIVICS";652;"AVV de Cooperativista Afectados del Sureste de Madrid (ACAS)";;"Asociación que une a los cooperativistas afectados de los Cerros, Los Berrocales, Los Ahijones o El Cañaveral, desarrollos urbanísticos situados en el Sureste de Madrid, que han dejado a más de 15.000 familias sin ahorros y viviendas. Víctimas de una presunta estafa con admisión a trámite por la vía penal y civil judicialmente.";;;"Plaza de Los Artesanos, 3";;;;"Madrid";"40.4265692";"-3.6186057";"asociacion@acasureste.com";;"www.acasureste.com";;;"Asociaciones de Vecinos";"Urbanismo";"2015-10-13 11:35:24.32023+00";"organizacion";"Infraestructuras y/o Intervenciones Urbanas";"Urbanismo y Patrimonio";"Organizaciones y Asociaciones de Vecinos";
"CIVICS";653;"AVV Valle Inclán de Prosperidad ";;"La asociación organiza mesas redondas, ciclos de conferencias, tertulias, visitas a museos, talleres (literatura, inglés, Tai-Chi, yoga, baile, teatro, música…), excursiones... y, por supuesto, trabaja para mejorar los servicios públicos y la calidad de vida de los vecinos de La Prospe.";;;"C/ Cardenal Silíceo, 23";;;;"Madrid";"40.4443026";"-3.67008899999996";"prospereando@gmail.com";;"http://www.prospereando.es/";"https://www.facebook.com/avvalleinclan.prosperidad";"@valleinclprospe";"Asociaciones de Vecinos";"Urbanismo";"2015-10-13 22:13:11.672752+00";"organizacion";"Trabajo Colaborativo";"Cultura Libre";"Organizaciones y Asociaciones de Vecinos";
"CIVICS";654;"Asociación de Afectados por la Venta de Viviendas del IVIMA";;"Tienen como objetivo defender los derechos e intereses de los vecinos, consumidores y usuarios, afectados por la venta de las viviendas públicas del IVIMA a los fondos de inversión privados, utilizando para ello los cauces establecidos en la legislación vigente.";;;"C/ Baños de Valdearados, 15";;;;"Madrid";"40.3679570349983";"-3.61047609178775";"info@afectaodsivima.org";;"http://afectadosivima.org/";;;"Asociaciones de Vecinos";"Urbanismo";"2015-10-13 22:59:00.463788+00";"organizacion";"Otros";"Educación Expandida";"Empresa Social";
"CIVICS";655;"AVV El Organillo";;"La asociación vecinal trabaja para reclamar más equipamientos públicos y zonas verdes, por la mejora de la movilidad y para reivindicar la conservación del patrimonio histórico y arquitectónico del distrito de Chamartín. Participa en la plataforma Salvemos el Frontón Beti Jai y en Corazón Verde Chamberí, que reclama la creación de un parque público en el tercer depósito del Canal de Isabel II, lugar en el que en la actualidad hay un campo de golf declarado ilegal. ";;;"C/ Meléndez Valdés, 24";;;;"Madrid";404.330.064;"-3.71073490000003";"secretaria@cyberorganillo.org";;"http://www.cyberorganillo.org/";"https://www.facebook.com/elorganillo";"@ElOrganillo";"Asociaciones de Vecinos";"Urbanismo";"2015-10-13 23:04:17.712958+00";"organizacion";"Mercado Social";"Ecología Urbana y Consumo";"Empresa Social/Startup";
"CIVICS";656;"AVV Comerciantes Fuente del Berro";;"Asociación vecinal que vela por la conservación del parque de la Fuente del Berro y por el incremento y mejora de los equipamientos públicos del distrito de Salamanca.";;;"C/ Lanuza, 14";;;;"Madrid";"40.4248667";"-3.66547600000001";"avcfuentedelberro@gmail.com";;"http://www.fuentedelberro.com/";;;"Apoyo Mutuo";"Cultura";"2015-10-14 07:58:38.155793+00";"colectivo";"Otros";"Deporte";"Iniciativa Ciudadana";
"CIVICS";657;"AVV El Sol de la Conce";;"Algunos miembros de la Asamblea Popular del Barrio de la Concepción constituyeron este espacio para la cultura, la solidaridad y la reivindicación vecinal. Gestiona un grupo de consumo ecológico, un banco de tiempo, un mercadillo de trueque... ";;;"Plaza de la Virgen del Romero";;;;"Madrid";"40.4387676";"-3.65147209999998";"elsoldelaconce@gmail.com";;"http://elsoldelaconce.com/";"https://www.facebook.com/pages/El-Sol-de-La-Conce";;"Mayores";;"2015-10-14 08:13:26.67875+00";"organizacion";"Derivas y Rutas Urbanas";"Movilidad Sostenible";"Iniciativa Ciudadana";
"CIVICS";658;"AVV Valdebernardo (AFUVEVA)";;"Loa futuros vecinos de Valdebernardo, que en 1990 habían firmado con la cooperativa PSV un contrato de adjudicación de vivienda, se conocieron cuando en 1992 veían como no se movían tierras, no se ponían ladrillos... Sabían que había que organizarse, lograr la unión entre los vecinos en la conquista de una vivienda digna. Crearon AFUVEVA porque era necesaria. Cuando se inician por fin las obras, AFUVEVA se convierte en un asociación de vecinos propiamente dicha. ";;;"C/ La Ladera de los Almendros, 13";;;;"Madrid";"40.4022099";"-3.62337000000002";"afuveva@afuveva.es";;"www.afuveva.es";;;"Medios de Comunicación";;"2015-10-14 08:18:04.374391+00";"organizacion";"Encuentro Diálogo y Corresponsabilidad";"Apoyo Mutuo y Cuidados";"Iniciativa Ciudadana";
"CIVICS";660;"AVV Goya Dalí";;"Una de las principales luchas de esta asociación es la defensa de la integridad de la Plaza Dalí y la conservación de su patrimonio. Forman parte de la Plataforma Ciudadana en Defensa del Dolmen de Dalí, inaugurado en el año 1986. La plaza consta de un dolmen y una escultura en bronce, obras ambas de Salvador Dalí que en 2002  el Ayuntamiento de Madrid quiso destruir, esta asociación en colaboración con la Plataforma, lograron su conservación.";;;"C/ Don Ramón de la Cruz, 80";;;;"Madrid";"40.4285524";"-3.67414159999998";"vecinos.goya@gmail.com";;"http://www.aavvmadrid.org/";;;"Medios de Comunicación";"Cultura";"2015-10-14 08:19:56.476859+00";"colectivo";"Encuentro Diálogo y Corresponsabilidad";"Apoyo Mutuo y Cuidados";"Iniciativa Ciudadana";
"CIVICS";661;"AVV Avance de Moratalaz Zona Este";;"Cuando a partir de 1969 se planifica en el este de Moratalaz una nueva zona urbana y comienzan a escasear las prestaciones, los vecinos se vieron obligados a trabajar desde la ilegalidad para luchar por la mejora del barrio. El local situado en la Avda. Fuente Carrantona, y que fuera un local de realojo, sigue en pie, y se ha convertido en lugar de paso obligado para socios y vecinos: oficina de información, centro cultural, foro de debate... ";;;"C/ Fuente Carrantona, s/n";;;;"Madrid";"40.406449";"-3.63210200000003";"info@avancemoratalaz.es";;"http://www.avancemoratalaz.es/";;;"Asociaciones de Vecinos";"Urbanismo";"2015-10-14 08:30:20.925498+00";"organizacion";"Medios de Comunicación Vecinales";"Cultura Libre";"Organizaciones y Asociaciones de Vecinos";
"CIVICS";662;"AVV Barrios Blanco, Alegría y San Pascual";;"Asociación con más de 30 años de vida en el barrio de San Pascual. Desarrollan multitud de actividades tradicionales como gimnasia, manualidades, sevillanas... Pero entre sus iniciativas más novedosas se encuentra una escuela de circo, la capoeira, un grupo de teatro o un grupo de góspel.";;;"C/ Verdaguer y García, 9";;;;"Madrid";"40.4401765";"-3.65568600000006";"bsanpascual@gmail.com";;"https://asosanpascual.wordpress.com/";"https://www.facebook.com/aavvsanpascual?fref=ts";;"Arte";"Cultura";"2015-10-14 08:34:15.71417+00";"colectivo";"Trabajo Colaborativo";"Educación Expandida";"Empresa Social/Startup";"Lago de la Casa de Campo, 28011 Madrid, Spain"
"CIVICS";665;"Taller de Comunicación Radio Vallekas";;"Fue un de las primeras radios comunitarias que se crearon en España. Se fundó en 1985 por un grupo ecologista-pacifista con la intención de incidir socialmente y cambiar las  condiciones de vida de los vecinos de Vallecas. Tiene como finalidad el realizar una programación de carácter popular y participativo destinada a la comunidad de los vecinos del barrio. Al mismo tiempo que realizan diversos talleres y cursos a aproximación a la radio y participa en actividades de la comunidad.";;;"C/ Puerto del Milagro, 6 ";;;;"Madrid";"40.38472";"-3.65828999999997";"info@radiovallekas.org";;"http://www.radiovallekas.org";"https://www.facebook.com/radiovallekas";;"Deporte";;"2015-10-14 08:36:24.109793+00";"colectivo";"Medios de Comunicación Vecinales";"Cultura Libre";"Organizaciones y Asociaciones de Vecinos";
"CIVICS";666;"AVV San Juan Bautista";;"Asociación anteriormente conocida como “Asociación de Vecinos Parque San Juan Bautista”, que desde el año 1966 lleva trabajando por la mejora de las condiciones de vida de sus vecinos/as, especialmente en lo referido a la comunicación del barrio con la ciudad. Además promueve diversas actividades como informática para adultos, taller de fotografía, etc.";;;"Plaza Valvanera, 1";;;;"Madrid";"40.4499056";"-3.65751069999999";"contactopsjb@gmail.com";;"http://avsanjuanbautista.wordpress.com/";"https://www.facebook.com/avvsanjuanbautista";"@vecinosSJB ";"Ecología";"Banco de Intercambio";"2015-10-14 08:37:56.01368+00";"colectivo";"Encuentro Diálogo y Corresponsabilidad";"Apoyo Mutuo y Cuidados";"Asambleas Populares, Mareas, Plataformas y Grupos de Trabajo";"Paseo de la Chopera, 14, 28045 Madrid, España"
"CIVICS";667;"AVV Guindalera-Parque de las Avenidas ";;"Asociación Vecinal que participa activamente en la vida social y cultural del distrito de Salamanca. Ha estado presente en Red Asociativa y Vecinal del Distrito de Salamanca activa desde 2007 y también ha sido motor de importantes reivindicaciones como la denuncia de los problemas derivados de la remodelación de la C/ Pilar de Zaragoza o Plaza de San Cayetano. Actualmente dinamiza la celebración de las fiestas del barrio y lleva a cabo diversas actividades como cursos de informática gratuitos";;;"C/ Méjico, 15";;;;"Madrid";"40.4365893";"-3.67395720000002";;;"http://asveguin.blogspot.com.es/";;;"Escuela";"Ecología";"2015-10-14 08:38:02.840779+00";"institucion";"Encuentro Diálogo y Corresponsabilidad";"Derechos e Igualdad";"Asambleas Populares, Mareas, Plataformas y Grupos de Trabajo";
"CIVICS";668;"Asoc. Socio-Cultural Mis Mujeres";;"Asociación sociocultural nacida en enero de 2009 en el Barrio de Virgen del Cortijo. Formada por mujeres con inquietudes y ganas de compartir un proyecto vivo y participativo, en torno a un espacio plural donde poder expresar con libertad ideas, reflexiones y experiencias, y donde poder realizar actividades para su desarrollo personal, cultural y social.";;;"C/ Oña, 49";;;;"Madrid";"40.48895";"-3.66493530000002";"amismujeres@gmail.com";;"www.asociacionmismujeres.com";;;"Asociaciones de Vecinos";"Urbanismo";"2015-10-14 08:38:20.410938+00";"organizacion";"Encuentro Diálogo y Corresponsabilidad";"Apoyo Mutuo y Cuidados";"Organizaciones y Asociaciones de Vecinos";
"CIVICS";669;"Plataforma vecinal San Blas y Simancas";;"La plataforma vecinal trabajó por la regularización de miles de viviendas públicas en el distrito, promovió la creación de PAH San Blas y colaboró de forma muy activa en la lucha por la apertura de la Finca de Torre Arias. En la actualidad participa en la gestión del Espacio Vecinal Montamarta y trabaja por el incremento y mejora de los servicios y equipamientos públicos del distrito y, en general, por la mejora de las condiciones de vida del vecindario.  ";;"Espacio Vecinal Montamarta";"C/ Montamarta, 7";;;;"Madrid";"40.4230283";"-3.62109850000002";"platavecinalsb@gmail.com";;"http://www.aavvmadrid.org/";;;"Asociaciones de Vecinos";"Urbanismo";"2015-10-14 08:39:56.454052+00";"organizacion";"Centro Social";"Política y Gobernanza";"Iniciativa Ciudadana";
"CIVICS";670;"AVV El Despertar de Vicálvaro ";;"En la asociación de vecinos Vicálvaro trabajan por un distrito pensado para los vecinos, dentro de una ciudad pensada para quienes la habitan. Conseguir las Escuelas infantiles publicas que se necesitan, la reapertura de la Avda. de Daroca, el centro de salud Valderrivas o el Centro de especialidades para toda la población del distrito... Son ejemplos de reivindicaciones por las que la Asociación sigue luchando. Hace 10 años empezó a editar mensualmente el periódico ""Vicálvaro Distrito 19"".  ";;;"C/ Villablanca, 35";;;;"Madrid";"40.40805";"-3.60496999999998";"avvicalvaro@gmail.com";;"www.avvicalvaro.es";;;"Asociaciones de Vecinos";"Urbanismo";"2015-10-14 08:40:21.846381+00";"organizacion";"Digital";"Otra";"Iniciativa Ciudadana";
"CIVICS";671;"AVV Alto del Arenal";;"Desde los años 70 participa en las movilizaciones vecinales para conseguir la conquista de las necesidades de los/as vecinos/as de Vallecas. Consiguió, con la participación de los/as vecinos/as y no pocas luchas, la remodelación del barrio en los años 80, la mayor de Europa. Ha tenido un activo papel en diferentes luchas ciudadanas del barrio y en colaboración con otras entidades han impulsado actividades y creado nuevos espacios de participación.";;;"C/ Pedro Laborde, 65";;;;"Madrid";"40.3854568092936";"-3.65054813030247";"aavvaltodelarenal@gmail.com";;"http://aavvaltodelarenal.wordpress.com";;;"Movilidad";;"2015-10-14 08:41:58.762663+00";"colectivo";"Otros";"Urbanismo y Patrimonio";"Asambleas Populares, Mareas, Plataformas y Grupos de Trabajo";"Plaza Cibeles, España"
"CIVICS";672;"AVV de la zona residencial del Bosque";;"La Asociación de Vecinos está siempre dispuesta a canalizar las quejas de los vecinos y a facilitar toda gestión o actividad que suponga una mejora para el barrio. En los locales de la asociación se desarrollan talleres de formación informática, pintura, reuniones de sus socios o de las diversas comunidades del barrio... Además, la Asociación abre su biblioteca al préstamo de libros.";;;"C/ Añastro, 11";;;;"Madrid";"40.4680381";"-3.66323520000003";"avvelbosque@hotmail.com";;"www.coloniaelbosque.com";;;"Asociaciones de Vecinos";"Urbanismo";"2015-10-14 08:44:02.527337+00";"organizacion";"Encuentro Diálogo y Corresponsabilidad";"Movilidad Sostenible";"Iniciativa Ciudadana";
"CIVICS";673;"AVV La Amistad de Canillejas";;"Es una Asociación fundada en el año 1970 y formada por vecinos y vecinas del Barrio de Canillejas dispuestos a trabajar de forma altruista por las necesidades del barrio. Actualmente presta asesoría jurídica y alberga su propia emisora, “Onda Diamante”,  que recogió el testigo de la antigua Radio Carmona, la última radio libre de Madrid que dejó de emitir por presiones de la Dirección General de Telecomunicaciones.";;;"C/ Esfinge, 86";;;;"Madrid";"40.4391246";"-3.6072729";"av.canillejas@gmail.com";;"http://www.avvcanillejas.org";"https://www.facebook.com/pages/Asociaci%C3%B3n-Vecinal-Amistad-de-Canillejas/101042903275977";;"Espacio Vecinal";"Política";"2015-10-14 08:44:25.557276+00";"colectivo";"Encuentro Diálogo y Corresponsabilidad";"Derechos e Igualdad";"Asambleas Populares, Mareas, Plataformas y Grupos de Trabajo";"Plaza de Corcubión, 16, 28029 Madrid, España"
"CIVICS";674;"AVV La Viña";;"La Asociación ha sido uno de los principales motores del proceso de remodelación de Entrevías. Actualmente continúan reclamando el pago de la subvención a 200 bloques que se lanzaron a la rehabilitación integral de los edificios y no pueden hacer frente a los gastos ya que queda pendiente un 20% de las ayudas prometidas por la Comunidad de Madrid. Defienden además una mayor seguridad y limpieza del barrio y luchan por mejorar las condiciones de vida de todos sus vecinos/as.";;;"C/ Ruidera, 6";;;;"Madrid";"40.3806204";"-3.67461100000003";"ferriafa@hotmail.com";;;"https://www.facebook.com/AvLaVinaEntrevias";;"Fundación";"Derechos Humanos";"2015-10-14 08:45:00.047542+00";"organizacion";"Otros";"Urbanismo y Patrimonio";"Asambleas Populares, Mareas, Plataformas y Grupos de Trabajo";
"CIVICS";675;"AVV Los Pinos de San Agustín";;"La AVV Los Pinos de San Agustín fue creada en 1977. Referente de la lucha por la vivienda digna ha sido motor de la construcción del barrio: luchando por su alumbrado, su comunicación y transporte o la construcción del centro de salud... Actualmente mantiene una intensa batalla por lograr la rehabilitación de sus viviendas. También ha impulsado proyectos como la Escuela Popular de Adultos iniciada en 1984.";;;"C/ Leoneses, s/n";;;;"Madrid";"40.3820344";"-3.64746839999998";"aavv.lospinos@telefonica.net";;;;;"Espacio Vecinal";"Política";"2015-10-14 08:46:27.258714+00";"colectivo";"Encuentro Diálogo y Corresponsabilidad";"Urbanismo y Patrimonio";"Asambleas Populares, Mareas, Plataformas y Grupos de Trabajo";"Plaza de la Cebada, 28005 Madrid, Spain"
"CIVICS";676;"AVV La Unión Cárcavas San Antonio";;"Inicia en 1966, siendo la segunda asociación más antigua de Madrid. Lograron la legalización de los terrenos en los que los vecinos construyeron su casa a partir de los años sesenta, el cierre del vertedero de Valdebebas o la colocación  de pantallas acústicas a lo largo de la M11 en la zona que bordea Cárcavas y San Antonio. En la actualidad reclama las necesidades de un barrio donde la alta especulación con el amplio suelo habitable favorece la construcción acelerada de viviendas de lujo.";;;"Avda. de Maruja Mallo, 26";;;;"Madrid";"40.4798561";"-3.63071249999996";"secretaria@asociacioncarcavas.com";;"https://avcarcavas.wordpress.com/";;;"Asociaciones de Vecinos";"Urbanismo";"2015-10-14 08:49:43.156757+00";"organizacion";"Encuentro Diálogo y Corresponsabilidad";"Urbanismo y Patrimonio";"Iniciativa Ciudadana";
"CIVICS";677;"AVV Las Musas";;"Una de las conquistas más llamativas de esta asociación vecinal fue el desmantelamiento de tres antenas de telefonía móvil que amenazaban la salud del vecindario (un estudio médico certificó un índice de cáncer superior a la media). Trabajan de forma muy activa en defensa de la sanidad pública.";;;"C/ Carlos II, 12";;;;"Madrid";"40.4284461";"-3.60779070000001";"avvlasmusas2@hotmail.com";;;;;"Asociaciones de Vecinos";"Urbanismo";"2015-10-14 08:50:20.174078+00";"organizacion";"Medios de Comunicación Vecinales";"Política y Gobernanza";"Organizaciones y Asociaciones de Vecinos";
"CIVICS";679;"AVV La Unión de Hortaleza";;"Desarrollan un trabajo en el barrio que pretende fortalecer la organización comunitaria, vinculándose a otros movimientos más amplios, para ser capaces de fortalecer estructuras colectivas organizadas y estables que reivindiquen desde lo local. Tiene como objetivos la defensa y mejora de los servicios y espacios públicos, la promoción de la cultura popular y la convivencia vecinal y Favorecer la participación organizada de los vecinos y vecinas.";;;"Santa Susana, 55";;;;"Madrid";"40.4801803";"-3.64787290000004";"avvuniondehortaleza@nodo50.org";;"http://www.nodo50.org/avvuniondehortaleza";;;"Asociaciones de Vecinos";"Urbanismo";"2015-10-14 08:51:48.645268+00";"organizacion";"Medios de Comunicación Vecinales";"Cultura Libre";"Organizaciones y Asociaciones de Vecinos";
"CIVICS";680;"AVV Las Rosas de San Blas";;"En el año 1998 unos vecinos de este incipiente barrio pensaron en crear una asociación con el fin de luchar por todas las necesidades que había por aquel entonces en un barrio nuevo: necesidad de equipamientos (no se disponía de colegios públicos ni ambulatorios), árboles en los parques, transporte público... Hoy, continúa trabajando para aumentar los servicios del barrio y por tanto la calidad de vida de los vecinos, reivindicando un centro cultural, más instalaciones deportivas, etc.";;;"C/ Moscú, 18";;;;"Madrid";"40.4174422";"-3.5529689";"av.lrosas@gmail.com";;;"https://www.facebook.com/AsociacionVecinosRosas";;"Apoyo Mutuo";"Social";"2015-10-14 08:53:55.849848+00";"colectivo";"Centro Social";"Apoyo Mutuo y Cuidados";"Asambleas Populares, Mareas, Plataformas y Grupos de Trabajo";
"CIVICS";681;"AVV La Colmena de Santa Eugenia ";;"Ubicada en el vallecano barrio de Santa Eugenia, lleva mas de 30 años luchando por los intereses de sus vecinos/as. Ha estado presente en muchas conquistas vecinales como el acceso al Hospital Infanta Leonor. Una de sus principales actividades ha sido promover el Huerto Urbano Ecológico Santa Eugenia.";;;"Avda. Santa Eugenia, 58";;;;"Madrid";"40.3799644";"-3.60929750000003";"avlacolmena@yahoo.es";;;;;"Espacio Vecinal";"Política";"2015-10-14 08:55:02.196989+00";"organizacion";"Trabajo Colaborativo";"Apoyo Mutuo y Cuidados";"Asambleas Populares, Mareas, Plataformas y Grupos de Trabajo";"Espacio Vecinal Arganzuela "
"CIVICS";682;"AVV Ventilla-Almenara";;"Participó de forma activa en el proceso de remodelación de barrios que se llevó a cabo en la década de los ochenta y gracias al cual miles de vecinos que vivían en infraviviendas fueron realojados en viviendas dignas. Desde entonces no ha dejado de trabajar para mejorar las condiciones de vida de sus vecinos defendiendo la sanidad y la educación públicas, un medio ambiente sostenible. Fue una de las entidades promotoras de los primeros huertos urbanos comunitarios.";;;"C/ Geranios, 22";;;;"Madrid";"40.4717125";"-3.69367280000006";"asocvecinosventilla@gmail.com";;;"https://www.facebook.com/pages/Asociaci%C3%B3n-Vecinal-Ventilla-Almenara/1400254603595371";;"Asociaciones de Vecinos";"Urbanismo";"2015-10-14 09:00:42.98939+00";"organizacion";"Despensas Solidarias y Bancos de Intercambio";"Apoyo Mutuo y Cuidados";"Administración Pública";
"CIVICS";683;"AVV Solidaridad Cuatro Caminos Tetuán";;"La asociación vecinal que, entre otras cuestiones, promovió la reapertura de la casa de baños de Tetuán, cuenta con un activo grupo de mujeres, un taller de historia de altura, un grupo de teatro comunitario y organiza paseos y rutas por la ciudad, entre otras muchas actividades.";;;"C/ Infanta Mercedes, 86";;;;"Madrid";"40.4621799";"-3.69454999999994";"vecinostetuan@gmail.com";;"http://avccaminostetuan.blogspot.com.es/";;;"Asociaciones de Vecinos";"Urbanismo";"2015-10-14 09:01:28.523333+00";"organizacion";"Centro Social";"Apoyo Mutuo y Cuidados";"Iniciativa Ciudadana";
"CIVICS";684;"AVV Barriada de San Fermín";;"Fundada en el año 1973 esta asociación ha marcado la transformación del barrio, siendo motor de la Remodelación del viejo Poblado de San Fermín, la construcción del actual Centro Social-Albergue Juvenil o el diseño del plan de inversiones en Usera-Villaverde. Sin embargo, también participa en la recuperación de las Fiestas del barrio, entre otras muchas actividades.";;"Albergue San Fermín";"Avda. de los Fueros, 36";;;;"Madrid";"40.3703422";"-3.68880409999997";"asociacion@san-fermin.org";;"http://aavvsanfermin.blogspot.com.es/";"https://www.facebook.com/aavv.sanfermin";;"Asamblea";;"2015-10-14 09:26:03.769567+00";"colectivo";"Encuentro Diálogo y Corresponsabilidad";"Educación Expandida";"Iniciativa Ciudadana";
"CIVICS";685;"AVV Barrio Zofío";;"La Asociación de Vecinos Barrio Zofío se creó en 1978 como forma de abordar de forma organizada la exigencia una vivienda digna para los vecinos que ocupaban las infraviviendas de la antigua Colonia Zofío situadas en el espacio que actualmente se conoce como “Parque Olof Palme”. Abierta al barrio, en ella desarrollan diversas actividades culturales y, actualmente, participa en el proceso de construcción de “Cinema Usera”.";;;"C/ Ricardo Beltrán y Rozpide, 5";;;;"Madrid";;;"avbarriozofio@gmail.com";;"http://www.avbarriozofio.com/";;"https://twitter.com/avbarriozofio";"Movilidad";;"2015-10-14 09:44:31.484085+00";"colectivo";"Derivas y Rutas Urbanas";"Movilidad Sostenible";"Iniciativa Ciudadana";"Plaza del Encuentro, 28030 Madrid, España"
"CIVICS";686;"AVV La Unión - UVA de Vallecas";;"Lleva años revindicando un paso subterráneo que de acceso al Hospital Infanta Leonor desde el barrio. Revindican ademas que el actual Colegio Juan de Herrera albergue una Escuela de Idiomas o disponga de programas profesionales para jóvenes de barrio que no terminan la educación básica. Su gran batalla es la conservación y mantenimiento del barrio, cada vez más degradado. Entre las actividades que realizan se encuentran los bailes de salón,  talleres de gimnasia, talleres de patchwork. ";;;"C/ Monte de Montjuich, 11";;;;"Madrid";;;"avunionvallecas@yahoo.es";;;;;"Centro Social";;"2015-10-14 10:00:47.726969+00";"colectivo";"Encuentro Diálogo y Corresponsabilidad";"Cultura Libre";"Iniciativa Ciudadana";"Plaza Luca de Tena, 28045 Madrid, Spain"
"CIVICS";687;"Asoc. de Minusválidos de Villaverde";"AMIFIVI";"La Asociación de Minusválidos Físico de Villaverde empezó a trabajar en Septiembre del 2000 para luchar por el cumplimiento de la normativa vigente que existe respecto a las personas con discapacidad: transporte adaptado, urbanismo, igualdad, empleo, deporte, educación... ";;;"C/ Potes, s/n";;;;"Madrid";"40.3504138";"-3.7106053";"amifivi@gmail.com";;;;;"Apoyo Mutuo";"Social";"2015-10-14 10:07:12.619605+00";"colectivo";"Otros";"Economía Colaborativa";"Organizaciones y Asociaciones de Vecinos";
"CIVICS";688;"AVV Independiente de Butarque";"AVIB";"AVIB es una Asociación muy joven situada en el barrio de Butarque. Desde su creación ha trabajado por la mejora de este barrio en construcción con importantes deficiencias de equipamiento públicos. Busca la implicación de los vecinos en los múltiples problemas del barrio, manteniendo una intensa lucha por la construcción de un instituto público con bachillerato, de un centro de salud, de equipamientos deportivos. Su lema ""Entre todos hacemos barrio"".";;;"C/ de la Estefania, 58";;;;"Madrid";"40.3428814";"-3.67440759999999";"avib.butarque@gmail.com";;"www.butarque.es";;;"Asociaciones de Vecinos";"Urbanismo";"2015-10-14 10:15:49.439846+00";"organizacion";"Otros";"Apoyo Mutuo y Cuidados";"Empresa Social";
"CIVICS";690;"AVV La Incolora";;"""La Incolora"", a principios de siglo, era una sociedad desarrollaba actividades culturales y recreativas y en la que se celebran actos sociales. Está asociación no sólo quiere mantener su memoria histórica, sino recoger los principios en los que estaba cimentada, que viene reflejada en su nombre ""ningún color, todos los colores"", que representa la participación y el trabajo conjunto de todos/as los/as vecinos/as para desarrollar alternativas a la problemática social de Villaverde.";;;"C/ del Doctor Criado, 12";;;;"Madrid";"40.3478921";"-3.70493809999994";"info@incolora.org";;"www.incolora.org";;;"Apoyo Mutuo";"Derechos Humanos";"2015-10-14 12:53:38.41842+00";"colectivo";"Medios de Comunicación Vecinales";"Cultura Libre";"Iniciativa Ciudadana";"Plazuela Artesanos, 3, 28037 Madrid, España"
"CIVICS";692;"Centro de Información y Educación Ambiental de la Casa de Campo";;"El Centro de Información y Educación Ambiental de la Casa de Campo, perteneciente al Ayuntamiento de Madrid, pretende difundir las actividades y programas que se realizan en el Centro y en el Parque de la Casa de Campo, con la intención de dar a conocer los valores naturales, históricos y culturales de este enclave, además de promover y desarrollar actividades que procuren un desarrollo más sostenible de la ciudad de Madrid.";;"Centro de Información y Educación Ambiental de la Casa de Campo";"Paseo del Embarcadero, s/n
Casa de Campo";;;;"Madrid";"40.418353337694";"-3.73077552977747";"infocasacampo@madrid.es";914801957;"www.programaactividadesambientalescasadecampo.com";;;"Asociaciones de Vecinos";"Urbanismo";"2015-10-16 12:23:56.865528+00";"organizacion";"Medios de Comunicación Vecinales";"Educación Expandida";"Iniciativa Ciudadana";
"CIVICS";698;"Senda de Cuidados";;"Asociación Sin Ánimo de Lucro en la que apostamos por ofrecer todos los apoyos necesarios para garantizar unos cuidados dignos, cálidos, cercanos y solidarios a todas aquellas personas que lo necesitan. Convencidos/as de que el cuidado es algo positivo y valioso, Senda de Cuidados es también una apuesta por dignificar el valor los cuidados.";;;"C/ Duque de Alba, 13 ";;;;"Madrid";"40.4117619482082";"-3.70621740818024";"info.sendadecuidados@gmail.com";627005011;"http://sendadecuidados.com/";"https://www.facebook.com/Senda-de-Cuidados-382353365242202/";;"Asociaciones de Vecinos";"Urbanismo";"2015-10-17 12:08:50.88233+00";"organizacion";"Medios de Comunicación Vecinales";"Cultura Libre";"Organizaciones y Asociaciones de Vecinos";
"CIVICS";700;"Cohousing";;"Desarrollamos proyectos sociales, no especulativos sin ánimo de lucro de Cohousing para colectivos de Mayores, familias, y familias con hijos con discapacidad intelectual. Comunidades vecinales de Cooperativas en Cesión de Uso Vitalicio en la que los vecinos decidan cómo, donde, con quién y de qué forma quieren crear su hogar.";;;"C/ Baños de Valdearados, 15";;;;"Madrid";"40.3677772";"-3.61196740000003";"jlsuarez@livingcohousing.com";629081149;"www.livingcohousing.com";"www.facebook.com/livingcohousing";" @livingcohousing ";"Asociaciones de Vecinos";"Urbanismo";"2015-10-19 14:51:42.011292+00";"organizacion";"Encuentro Diálogo y Corresponsabilidad";"Cultura Libre";"Empresa Social/Startup";
"CIVICS";706;"Plataforma Ciudadana Bicilineal";;"Plataforma vecinal del distrito de Ciudad Lineal fundada en el año 2005 y que trabaja por conseguir una vía ciclista segura en la C/ Arturo Soria que ocupe parte de la calzada y que, en ningún caso, se haga a costa del espacio peatonal o espacio verde.";;;"C/ Ignacio Ellacuría, 3 - Bajo 1";;;;"Madrid";"40.4361281191903";"-3.63724295884708";"plataforma.bicilineal@gmail.com";699579867;"http://bicilineal.blogspot.com.es/";;"@bicilineal";"Deporte";;"2015-10-19 19:27:07.120687+00";"colectivo";"Otros";"Cultura Libre";"Iniciativa Ciudadana";
"CIVICS";709;"Fundación Tomillo";;"Iniciativa denominada ""Barrios sostenibles"" que tiene la misión de formar a jóvenes en situación de vulnerabilidad en profesiones de futuro relacionadas con la eficiencia energética y el medio ambiente;ayudar a fortalecer la activación de la ciudadanía y el tejido social a la vez que generar cambios en las ideas, actitudes y comportamientos de la comunidad en su relación con el territorio; Más información en: barriossostenibles.org";;;"C/ Albuñuelas, 15";;;;"Madrid";"40.3659785";"-3.69803720000004";"juan.oyono@tomillo.org";913698228;"www.tomillo.org";"Fundación Tomillo";"@ftomillo";"Asociaciones de Vecinos";"Urbanismo";"2015-10-22 09:25:55.320973+00";"organizacion";"Digital";"Arte Urbano";"Iniciativa Ciudadana";
"CIVICS";718;"Agronautas - Pezestudio";;"En Pezestudio diseñamos objetos, herramientas, espacios y prácticas que promueven la minimización del impacto de las personas sobre el medioambiente, el desarrollo social, la investigación y producción de técnicas constructivas innovadoras y la generación de contextos de colaboración. Agronautas es una iniciativa para generar cotextos abiertos de aprendizaje para reformular las relaciones entre las personas y el medio natural y acercarnos a una mayor autosuficiencia.";;"Espacio Ucrania";"C/ Martín de los Heros, 52";;;;"Madrid";"40.4276087";"-3.71624659999998";"info@pezestudio.org";616453509;"www.pezestudio.org";"https://www.facebook.com/pezestudio/";"@pezestudio";;"Economía";"2015-10-29 19:50:49.093487+00";"colectivo";"Encuentro Diálogo y Corresponsabilidad";"Urbanismo y Patrimonio";"Empresa Social";
